[{"locationId": "TAM01", "locationName": "Lyndon House", "postalCode": "B92 7QW", "nhs_ha": "West Midlands", "primary_care_trust": "Solihull", "parliamentary_constituency": "Solihull", "lat": 52.448633, "lng": -1.794186}, {"locationId": "TAM02", "locationName": "Gilliver Road", "postalCode": "B90 2DS", "nhs_ha": "West Midlands", "primary_care_trust": "Solihull", "parliamentary_constituency": "Solihull", "lat": 52.406797, "lng": -1.830586}, {"locationId": "TAM03", "locationName": "Ivy Lodge", "postalCode": "B37 7HJ", "nhs_ha": "West Midlands", "primary_care_trust": "Solihull", "parliamentary_constituency": "Meriden", "lat": 52.466897, "lng": -1.745923}, {"locationId": "TAM04", "locationName": "Chelmsley Wood Primary Care Centre", "postalCode": "B37 5BU", "nhs_ha": "West Midlands", "primary_care_trust": "Solihull", "parliamentary_constituency": "Meriden", "lat": 52.480569, "lng": -1.753633}, {"locationId": "TAM15", "locationName": "Stapleton Drive", "postalCode": "B37 5LQ", "nhs_ha": "West Midlands", "primary_care_trust": "Solihull", "parliamentary_constituency": "Meriden", "lat": 52.485456, "lng": -1.74321}, {"locationId": "TAM31", "locationName": "Brookvale Domicillary Care Service", "postalCode": "B92 7HP", "nhs_ha": "West Midlands", "primary_care_trust": "Solihull", "parliamentary_constituency": "Solihull", "lat": 52.441144, "lng": -1.809859}, {"locationId": "TAM32", "locationName": "Coombes House", "postalCode": "B90 1JT", "nhs_ha": "West Midlands", "primary_care_trust": "Solihull", "parliamentary_constituency": "Solihull", "lat": 52.406319, "lng": -1.859245}, {"locationId": "TAM39", "locationName": "Sunhaven", "postalCode": "B90 1JP", "nhs_ha": "West Midlands", "primary_care_trust": "Solihull", "parliamentary_constituency": "Solihull", "lat": 52.405118, "lng": -1.867266}, {"locationId": "TAMHQ", "locationName": "Trust Headquarters (Friars Gate)", "postalCode": "B90 4BN", "nhs_ha": "West Midlands", "primary_care_trust": "Solihull", "parliamentary_constituency": "Solihull", "lat": 52.391696, "lng": -1.808175}, {"locationId": "TAMX2", "locationName": "222 Bills Lane", "postalCode": "B90 2PP", "nhs_ha": "West Midlands", "primary_care_trust": "Solihull", "parliamentary_constituency": "Solihull", "lat": 52.399089, "lng": -1.840594}, {"locationId": "TAMX3", "locationName": "Downing Close", "postalCode": "B93 0QA", "nhs_ha": "West Midlands", "primary_care_trust": "Solihull", "parliamentary_constituency": "Meriden", "lat": 52.379799, "lng": -1.744762}, {"locationId": "TAMX4", "locationName": "Hurst Green Road", "postalCode": "B93 8AE", "nhs_ha": "West Midlands", "primary_care_trust": "Solihull", "parliamentary_constituency": "Meriden", "lat": 52.38175, "lng": -1.757474}, {"locationId": "TAMX5", "locationName": "137 Bills Lane", "postalCode": "B90 2PQ", "nhs_ha": "West Midlands", "primary_care_trust": "Solihull", "parliamentary_constituency": "Solihull", "lat": 52.402417, "lng": -1.835423}, {"locationId": "TAMX6", "locationName": "Three Gates", "postalCode": "B93 0PJ", "nhs_ha": "West Midlands", "primary_care_trust": "Solihull", "parliamentary_constituency": "Meriden", "lat": 52.375629, "lng": -1.741099}, {"locationId": "TAMX8", "locationName": "Creynolds Lane", "postalCode": "B90 4ET", "nhs_ha": "West Midlands", "primary_care_trust": "Solihull", "parliamentary_constituency": "Meriden", "lat": 52.37879, "lng": -1.810581}, {"locationId": "TAMX9", "locationName": "Charlbury Avenue", "postalCode": "B37 5BG", "nhs_ha": "West Midlands", "primary_care_trust": "Solihull", "parliamentary_constituency": "Meriden", "lat": 52.47984, "lng": -1.757672}, {"locationId": "TAMY1", "locationName": "2 Kettlewell Way", "postalCode": "B37 5JG", "nhs_ha": "West Midlands", "primary_care_trust": "Solihull", "parliamentary_constituency": "Meriden", "lat": 52.476312, "lng": -1.755733}, {"locationId": "TAMY2", "locationName": "Coppice Close", "postalCode": "B90 4HX", "nhs_ha": "West Midlands", "primary_care_trust": "Solihull", "parliamentary_constituency": "Meriden", "lat": 52.378181, "lng": -1.818076}, {"locationId": "TAMY3", "locationName": "Solihull North Care Home Service", "postalCode": "B37 5BU", "nhs_ha": "West Midlands", "primary_care_trust": "Solihull", "parliamentary_constituency": "Meriden", "lat": 52.480569, "lng": -1.753633}, {"locationId": "TAMY4", "locationName": "Green Hill Way DCA", "postalCode": "B90 3PW", "nhs_ha": "West Midlands", "primary_care_trust": "Solihull", "parliamentary_constituency": "Solihull", "lat": 52.420608, "lng": -1.831974}, {"locationId": "TAMY5", "locationName": "Supported Care for Tenants", "postalCode": "B37 7HJ", "nhs_ha": "West Midlands", "primary_care_trust": "Solihull", "parliamentary_constituency": "Meriden", "lat": 52.466897, "lng": -1.745923}, {"locationId": "TANX1", "locationName": "Mental Health: Older People's Mental Health Service: The Gardens", "postalCode": "DN33 2BA", "nhs_ha": "Yorkshire and the Humber", "primary_care_trust": "North East Lincolnshire", "parliamentary_constituency": "Great Grimsby", "lat": 53.544858, "lng": -0.096229}, {"locationId": "TANX2", "locationName": "Directorate of Mental Health Harrison House", "postalCode": "DN32 9EP", "nhs_ha": "Yorkshire and the Humber", "primary_care_trust": "North East Lincolnshire", "parliamentary_constituency": "Great Grimsby", "lat": 53.565292, "lng": -0.073375}, {"locationId": "TANX3", "locationName": "Supported Living Services for People with Learning Disabilities", "postalCode": "DN32 7DJ", "nhs_ha": "Yorkshire and the Humber", "primary_care_trust": "North East Lincolnshire", "parliamentary_constituency": "Great Grimsby", "lat": 53.573616, "lng": -0.071571}, {"locationId": "TANX4", "locationName": "Community Support Team/Intermediate Care at Home", "postalCode": "DN32 0LT", "nhs_ha": "Yorkshire and the Humber", "primary_care_trust": "North East Lincolnshire", "parliamentary_constituency": "Great Grimsby", "lat": 53.562657, "lng": -0.082111}, {"locationId": "TANX5", "locationName": "The Beacon Intermediate Tier Unit", "postalCode": "DN35 9HL", "nhs_ha": "Yorkshire and the Humber", "primary_care_trust": "North East Lincolnshire", "parliamentary_constituency": "Cleethorpes", "lat": 53.552949, "lng": -0.040084}, {"locationId": "TANX6", "locationName": "The Willows - Older Peoples Mental Health Resource Centre", "postalCode": "DN37 9EJ", "nhs_ha": "Yorkshire and the Humber", "primary_care_trust": "North East Lincolnshire", "parliamentary_constituency": "Great Grimsby", "lat": 53.568664, "lng": -0.128187}, {"locationId": "TANXX", "locationName": "North East Lincolnshire Care Trust Plus Headquarters", "postalCode": "DN31 3AG", "nhs_ha": "Yorkshire and the Humber", "primary_care_trust": "North East Lincolnshire", "parliamentary_constituency": "Great Grimsby", "lat": 53.574253, "lng": -0.076095}, {"locationId": "TAP02", "locationName": "Darwen Health Centre", "postalCode": "BB3 1PY", "nhs_ha": "North West", "primary_care_trust": "Blackburn with Darwen Teaching", "parliamentary_constituency": "Rossendale and Darwen", "lat": 53.695744, "lng": -2.471427}, {"locationId": "TAP03", "locationName": "Montague Health Centre", "postalCode": "BB2 1PP", "nhs_ha": "Not Found", "primary_care_trust": "Not Found", "parliamentary_constituency": "Not Found", "lat": 0, "lng": 0}, {"locationId": "TAP04", "locationName": "Larkhill Health Centre", "postalCode": "BB1 5BJ", "nhs_ha": "Not Found", "primary_care_trust": "Not Found", "parliamentary_constituency": "Not Found", "lat": 0, "lng": 0}, {"locationId": "TAP14", "locationName": "Guide Business Centre", "postalCode": "BB1 2QH", "nhs_ha": "North West", "primary_care_trust": "Blackburn with Darwen Teaching", "parliamentary_constituency": "Blackburn", "lat": 53.73009, "lng": -2.444405}]