[{"locationId": "RY2Y2", "locationName": "Bridgewater CHCFT Whiston Hospital", "postalCode": "L35 5DR", "nhs_ha": "North West", "primary_care_trust": "Knowsley", "parliamentary_constituency": "St Helens South and Whiston", "lat": 53.420469, "lng": -2.784954}, {"locationId": "RY2Y3", "locationName": "Bridgewater CHCFT Lever Chambers", "postalCode": "BL1 1SQ", "nhs_ha": "North West", "primary_care_trust": "Bolton Teaching", "parliamentary_constituency": "Bolton North East", "lat": 53.576864, "lng": -2.431198}, {"locationId": "RY2Y4", "locationName": "Bridgewater CHCFT Hattersley Clinic", "postalCode": "SK14 3EH", "nhs_ha": "North West", "primary_care_trust": "Tameside and Glossop", "parliamentary_constituency": "Stalybridge and Hyde", "lat": 53.450228, "lng": -2.027426}, {"locationId": "RY2Y5", "locationName": "Bridgewater CHCFT Ashton Primary Care", "postalCode": "OL6 7SR", "nhs_ha": "North West", "primary_care_trust": "Tameside and Glossop", "parliamentary_constituency": "Ashton-under-Lyne", "lat": 53.485827, "lng": -2.099981}, {"locationId": "RY2Y8", "locationName": "Bridgewater CHCT North Trafford Combined Care Centre", "postalCode": "M16 0DU", "nhs_ha": "Not Found", "primary_care_trust": "Not Found", "parliamentary_constituency": "Not Found", "lat": 0, "lng": 0}, {"locationId": "RY2Z1", "locationName": "Bridgewater CHCFT Union Street Clinic", "postalCode": "SK14 1NX", "nhs_ha": "North West", "primary_care_trust": "Tameside and Glossop", "parliamentary_constituency": "Stalybridge and Hyde", "lat": 53.449973, "lng": -2.075911}, {"locationId": "RY2Z2", "locationName": "Bridgewater CHCFT Trafford General Hospital", "postalCode": "M41 5SL", "nhs_ha": "North West", "primary_care_trust": "Trafford", "parliamentary_constituency": "Stretford and Urmston", "lat": 53.45406, "lng": -2.370681}, {"locationId": "RY2Z3", "locationName": "Bridgewater CHCFT Barton Moss Secure Home", "postalCode": "M30 7RL", "nhs_ha": "North West", "primary_care_trust": "Salford", "parliamentary_constituency": "Worsley and Eccles South", "lat": 53.468834, "lng": -2.39687}, {"locationId": "RY2Z4", "locationName": "Bridgewater CHCFT HMP/YOI Thorn Cross", "postalCode": "WA4 4RL", "nhs_ha": "North West", "primary_care_trust": "Warrington", "parliamentary_constituency": "Warrington South", "lat": 53.349215, "lng": -2.542101}, {"locationId": "RY2Z5", "locationName": "Bridgewater CHCFT Tameside General Hospital", "postalCode": "OL6 9RW", "nhs_ha": "North West", "primary_care_trust": "Tameside and Glossop", "parliamentary_constituency": "Ashton-under-Lyne", "lat": 53.49153, "lng": -2.071433}, {"locationId": "RY2Z7", "locationName": "Bridgewater CHCFT Hallwood Health Centre", "postalCode": "WA7 2UT", "nhs_ha": "North West", "primary_care_trust": "Halton and St Helens", "parliamentary_constituency": "Weaver Vale", "lat": 53.325561, "lng": -2.696866}, {"locationId": "RY2Z8", "locationName": "Bridgewater CHCT Garven Place", "postalCode": "WA1 1GP", "nhs_ha": "Not Found", "primary_care_trust": "Not Found", "parliamentary_constituency": "Not Found", "lat": 0, "lng": 0}, {"locationId": "RY2Z9", "locationName": "Bridgewater CHCT Farnworth Health Centre", "postalCode": "BL4 9AH", "nhs_ha": "North West", "primary_care_trust": "Bolton Teaching", "parliamentary_constituency": "Bolton South East", "lat": 53.546123, "lng": -2.397759}, {"locationId": "RY2ZA", "locationName": "Bridgewater CHCFT HMP Risley", "postalCode": "WA3 6BP", "nhs_ha": "North West", "primary_care_trust": "Warrington", "parliamentary_constituency": "Warrington North", "lat": 53.438766, "lng": -2.525132}, {"locationId": "RY2ZB", "locationName": "Bridgewater CHCFT The Willaston Surgery", "postalCode": "CH64 2TN", "nhs_ha": "North West", "primary_care_trust": "Western Cheshire", "parliamentary_constituency": "Ellesmere Port and Neston", "lat": 53.292908, "lng": -3.011643}, {"locationId": "RY310", "locationName": "Little Acorns", "postalCode": "NR31 8TJ", "nhs_ha": "East of England", "primary_care_trust": "Great Yarmouth and Waveney", "parliamentary_constituency": "Great Yarmouth", "lat": 52.587964, "lng": 1.713961}, {"locationId": "RY311", "locationName": "Colman Hospital", "postalCode": "NR2 2PJ", "nhs_ha": "East of England", "primary_care_trust": "Norfolk", "parliamentary_constituency": "Norwich South", "lat": 52.620275, "lng": 1.268826}, {"locationId": "RY312", "locationName": "Norwich Community Hospital", "postalCode": "NR2 3TU", "nhs_ha": "East of England", "primary_care_trust": "Norfolk", "parliamentary_constituency": "Norwich South", "lat": 52.6341, "lng": 1.262486}, {"locationId": "RY319", "locationName": "Dereham Hospital", "postalCode": "NR19 2EX", "nhs_ha": "East of England", "primary_care_trust": "Norfolk", "parliamentary_constituency": "Mid Norfolk", "lat": 52.690016, "lng": 0.945704}, {"locationId": "RY32P", "locationName": "Downham Market Health Centre", "postalCode": "PE38 9LE", "nhs_ha": "East of England", "primary_care_trust": "Norfolk", "parliamentary_constituency": "South West Norfolk", "lat": 52.60234, "lng": 0.378936}, {"locationId": "RY332", "locationName": "North Walsham Hospital", "postalCode": "NR28 9AP", "nhs_ha": "East of England", "primary_care_trust": "Norfolk", "parliamentary_constituency": "North Norfolk", "lat": 52.814008, "lng": 1.387604}, {"locationId": "RY334", "locationName": "St Michael'sHospital", "postalCode": "NR11 6NA", "nhs_ha": "Not Found", "primary_care_trust": "Not Found", "parliamentary_constituency": "Not Found", "lat": 0, "lng": 0}, {"locationId": "RY335", "locationName": "Kelling Hospital", "postalCode": "NR25 6QA", "nhs_ha": "East of England", "primary_care_trust": "Norfolk", "parliamentary_constituency": "North Norfolk", "lat": 52.914476, "lng": 1.116042}, {"locationId": "RY33E", "locationName": "Swaffham Community Hospital", "postalCode": "PE37 7HL", "nhs_ha": "East of England", "primary_care_trust": "Norfolk", "parliamentary_constituency": "South West Norfolk", "lat": 52.651038, "lng": 0.691968}, {"locationId": "RY350", "locationName": "Mill Lodge", "postalCode": "NR8 6UR", "nhs_ha": "East of England", "primary_care_trust": "Norfolk", "parliamentary_constituency": "Broadland", "lat": 52.686784, "lng": 1.20758}, {"locationId": "RY351", "locationName": "3 Mill Close", "postalCode": "NR11 6LZ", "nhs_ha": "East of England", "primary_care_trust": "Norfolk", "parliamentary_constituency": "Broadland", "lat": 52.794047, "lng": 1.239017}, {"locationId": "RY352", "locationName": "Squirrels", "postalCode": "NR11 6LZ", "nhs_ha": "East of England", "primary_care_trust": "Norfolk", "parliamentary_constituency": "Broadland", "lat": 52.794047, "lng": 1.239017}, {"locationId": "RY36W", "locationName": "City Reach", "postalCode": "NR2 4SZ", "nhs_ha": "East of England", "primary_care_trust": "Norfolk", "parliamentary_constituency": "Norwich South", "lat": 52.633042, "lng": 1.288137}, {"locationId": "RY386", "locationName": "Ogden Court Community Hospital", "postalCode": "NR18 0PE", "nhs_ha": "East of England", "primary_care_trust": "Norfolk", "parliamentary_constituency": "Mid Norfolk", "lat": 52.57182, "lng": 1.114023}, {"locationId": "RY387", "locationName": "Cranmer House", "postalCode": "NR21 8HR", "nhs_ha": "East of England", "primary_care_trust": "Norfolk", "parliamentary_constituency": "Broadland", "lat": 52.831686, "lng": 0.861967}, {"locationId": "RY390", "locationName": "Benjamin Court", "postalCode": "NR27 0EU", "nhs_ha": "East of England", "primary_care_trust": "Norfolk", "parliamentary_constituency": "North Norfolk", "lat": 52.924546, "lng": 1.300812}, {"locationId": "RY3X1", "locationName": "Tilney Ward", "postalCode": "PE30 4ET", "nhs_ha": "East of England", "primary_care_trust": "Norfolk", "parliamentary_constituency": "North West Norfolk", "lat": 52.75663, "lng": 0.446694}, {"locationId": "RY3X2", "locationName": "HMP Norwich", "postalCode": "NR1 4LU", "nhs_ha": "East of England", "primary_care_trust": "Norfolk", "parliamentary_constituency": "Norwich North", "lat": 52.637571, "lng": 1.317585}, {"locationId": "RY3X3", "locationName": "Provider Services HQ", "postalCode": "NR1 3FR", "nhs_ha": "Not Found", "primary_care_trust": "Not Found", "parliamentary_constituency": "Not Found", "lat": 0, "lng": 0}, {"locationId": "RY3X4", "locationName": "Provider Services HQ", "postalCode": "NR2 3TU", "nhs_ha": "East of England", "primary_care_trust": "Norfolk", "parliamentary_constituency": "Norwich South", "lat": 52.6341, "lng": 1.262486}, {"locationId": "RY402", "locationName": "Potters Bar Community Hospital", "postalCode": "EN6 2RY", "nhs_ha": "East of England", "primary_care_trust": "Hertfordshire", "parliamentary_constituency": "Hertsmere", "lat": 51.687184, "lng": -0.177519}, {"locationId": "RY404", "locationName": "Windmill House", "postalCode": "WD23 1RN", "nhs_ha": "Not Found", "primary_care_trust": "Not Found", "parliamentary_constituency": "Not Found", "lat": 0, "lng": 0}, {"locationId": "RY405", "locationName": "Gossoms End Intermediate Care Unit", "postalCode": "HP4 1DL", "nhs_ha": "East of England", "primary_care_trust": "Hertfordshire", "parliamentary_constituency": "South West Hertfordshire", "lat": 51.764188, "lng": -0.577818}, {"locationId": "RY406", "locationName": "Hitchin Community Hospital", "postalCode": "SG5 2JZ", "nhs_ha": "East of England", "primary_care_trust": "Hertfordshire", "parliamentary_constituency": "Hitchin and Harpenden", "lat": 51.950868, "lng": -0.284199}, {"locationId": "RY407", "locationName": "Danesbury Home", "postalCode": "AL6 9PW", "nhs_ha": "East of England", "primary_care_trust": "Hertfordshire", "parliamentary_constituency": "Welwyn Hatfield", "lat": 51.827957, "lng": -0.222867}, {"locationId": "RY409", "locationName": "Hertfordshire & Essex Hospital", "postalCode": "CM23 5JH", "nhs_ha": "East of England", "primary_care_trust": "Hertfordshire", "parliamentary_constituency": "Hertford and Stortford", "lat": 51.865482, "lng": 0.174321}, {"locationId": "RY411", "locationName": "Langley House", "postalCode": "WD25 9NQ", "nhs_ha": "East of England", "primary_care_trust": "Hertfordshire", "parliamentary_constituency": "Watford", "lat": 51.685206, "lng": -0.391165}, {"locationId": "RY412", "locationName": "Queen Victoria Memorial Hospital", "postalCode": "AL6 9PW", "nhs_ha": "East of England", "primary_care_trust": "Hertfordshire", "parliamentary_constituency": "Welwyn Hatfield", "lat": 51.827957, "lng": -0.222867}, {"locationId": "RY414", "locationName": "St Peters Ward, Hemel Hempstead General Hospital", "postalCode": "HP2 4AD", "nhs_ha": "East of England", "primary_care_trust": "Hertfordshire", "parliamentary_constituency": "Hemel Hempstead", "lat": 51.750846, "lng": -0.468578}, {"locationId": "RY415", "locationName": "Kingsway Sexual Health Clinic", "postalCode": "SG1 2UA", "nhs_ha": "East of England", "primary_care_trust": "Hertfordshire", "parliamentary_constituency": "Stevenage", "lat": 51.899914, "lng": -0.208256}, {"locationId": "RY418", "locationName": "Nascot Lawn", "postalCode": "WD17 4PJ", "nhs_ha": "East of England", "primary_care_trust": "Hertfordshire", "parliamentary_constituency": "Watford", "lat": 51.667889, "lng": -0.407107}, {"locationId": "RY448", "locationName": "Howard Court", "postalCode": "AL7 1BW", "nhs_ha": "East of England", "primary_care_trust": "Hertfordshire", "parliamentary_constituency": "Welwyn Hatfield", "lat": 51.802697, "lng": -0.194002}, {"locationId": "RY4X2", "locationName": "Queensway Operating Suite, QEII", "postalCode": "AL7 4HQ", "nhs_ha": "East of England", "primary_care_trust": "Hertfordshire", "parliamentary_constituency": "Welwyn Hatfield", "lat": 51.782829, "lng": -0.187701}, {"locationId": "RY4X3", "locationName": "HMP The Mount", "postalCode": "HP3 0NZ", "nhs_ha": "East of England", "primary_care_trust": "Hertfordshire", "parliamentary_constituency": "South West Hertfordshire", "lat": 51.724717, "lng": -0.541355}, {"locationId": "RY4X5", "locationName": "Royston Community Hospital", "postalCode": "SG8 9EN", "nhs_ha": "East of England", "primary_care_trust": "Hertfordshire", "parliamentary_constituency": "North East Hertfordshire", "lat": 52.04153, "lng": -0.022385}, {"locationId": "RY4X6", "locationName": "St Albans City Hospital", "postalCode": "AL3 5PN", "nhs_ha": "East of England", "primary_care_trust": "Hertfordshire", "parliamentary_constituency": "St Albans", "lat": 51.760074, "lng": -0.343963}, {"locationId": "RY4X7", "locationName": "Herts Special Care Dental Service", "postalCode": "SG1 4AB", "nhs_ha": "East of England", "primary_care_trust": "Hertfordshire", "parliamentary_constituency": "Stevenage", "lat": 51.924611, "lng": -0.212726}, {"locationId": "RY505", "locationName": "Market Rasen Dental Clinic", "postalCode": "LN8 3AT", "nhs_ha": "East Midlands", "primary_care_trust": "Lincolnshire Teaching", "parliamentary_constituency": "Gainsborough", "lat": 53.385312, "lng": -0.338092}, {"locationId": "RY506", "locationName": "Metheringham Surgery", "postalCode": "LN4 3DZ", "nhs_ha": "East Midlands", "primary_care_trust": "Lincolnshire Teaching", "parliamentary_constituency": "Sleaford and North Hykeham", "lat": 53.139159, "lng": -0.402592}, {"locationId": "RY507", "locationName": "North Hykeham Dental Clinic", "postalCode": "LN6 9BA", "nhs_ha": "East Midlands", "primary_care_trust": "Lincolnshire Teaching", "parliamentary_constituency": "Sleaford and North Hykeham", "lat": 53.187345, "lng": -0.596465}, {"locationId": "RY510", "locationName": "Arboretum Surgery", "postalCode": "LN2 5HU", "nhs_ha": "East Midlands", "primary_care_trust": "Lincolnshire Teaching", "parliamentary_constituency": "Lincoln", "lat": 53.230808, "lng": -0.52884}, {"locationId": "RY513", "locationName": "Burton Road Surgery", "postalCode": "LN1 3LT", "nhs_ha": "East Midlands", "primary_care_trust": "Lincolnshire Teaching", "parliamentary_constituency": "Lincoln", "lat": 53.241046, "lng": -0.546666}, {"locationId": "RY514", "locationName": "Pottergate Surgery", "postalCode": "DN21 2UQ", "nhs_ha": "East Midlands", "primary_care_trust": "Lincolnshire Teaching", "parliamentary_constituency": "Gainsborough", "lat": 53.411776, "lng": -0.780581}, {"locationId": "RY520", "locationName": "Grantham Dental Clinic", "postalCode": "NG31 6TT", "nhs_ha": "East Midlands", "primary_care_trust": "Lincolnshire Teaching", "parliamentary_constituency": "Grantham and Stamford", "lat": 52.910185, "lng": -0.637482}, {"locationId": "RY521", "locationName": "Riversdale Health Clinical", "postalCode": "NG34 7PJ", "nhs_ha": "East Midlands", "primary_care_trust": "Lincolnshire Teaching", "parliamentary_constituency": "Sleaford and North Hykeham", "lat": 52.999326, "lng": -0.411517}, {"locationId": "RY522", "locationName": "Stamford and Rutland Hospital", "postalCode": "PE9 1UA", "nhs_ha": "East Midlands", "primary_care_trust": "Lincolnshire Teaching", "parliamentary_constituency": "Grantham and Stamford", "lat": 52.655371, "lng": -0.468751}, {"locationId": "RY527", "locationName": "Boston Health Clinic", "postalCode": "PE21 8RU", "nhs_ha": "East Midlands", "primary_care_trust": "Lincolnshire Teaching", "parliamentary_constituency": "Boston and Skegness", "lat": 52.977451, "lng": -0.027957}, {"locationId": "RY528", "locationName": "Lindon House", "postalCode": "LN6 7TU", "nhs_ha": "East Midlands", "primary_care_trust": "Lincolnshire Teaching", "parliamentary_constituency": "Lincoln", "lat": 53.219616, "lng": -0.55494}, {"locationId": "RY532", "locationName": "Horncastle Health Centre", "postalCode": "LN9 5HF", "nhs_ha": "East Midlands", "primary_care_trust": "Lincolnshire Teaching", "parliamentary_constituency": "Louth and Horncastle", "lat": 53.208387, "lng": -0.118231}, {"locationId": "RY539", "locationName": "Skegness Hospital", "postalCode": "PE25 2BS", "nhs_ha": "East Midlands", "primary_care_trust": "Lincolnshire Teaching", "parliamentary_constituency": "Boston and Skegness", "lat": 53.145179, "lng": 0.332257}, {"locationId": "RY544", "locationName": "City Care Centre (Minor Injury and Illness Unit)", "postalCode": "PE3 6DB", "nhs_ha": "East of England", "primary_care_trust": "Peterborough", "parliamentary_constituency": "Peterborough", "lat": 52.574107, "lng": -0.258726}, {"locationId": "RY550", "locationName": "Pilgrim Hospital", "postalCode": "PE21 9QS", "nhs_ha": "East Midlands", "primary_care_trust": "Lincolnshire Teaching", "parliamentary_constituency": "Boston and Skegness", "lat": 52.991125, "lng": -0.009968}, {"locationId": "RY551", "locationName": "Grantham Hospital", "postalCode": "NG31 8DG", "nhs_ha": "East Midlands", "primary_care_trust": "Lincolnshire Teaching", "parliamentary_constituency": "Grantham and Stamford", "lat": 52.921087, "lng": -0.640714}, {"locationId": "RY552", "locationName": "Lincoln County Hospital", "postalCode": "LN2 5QY", "nhs_ha": "East Midlands", "primary_care_trust": "Lincolnshire Teaching", "parliamentary_constituency": "Lincoln", "lat": 53.233575, "lng": -0.519635}, {"locationId": "RY555", "locationName": "Gainsborough Health Clinic", "postalCode": "DN21 2DZ", "nhs_ha": "East Midlands", "primary_care_trust": "Lincolnshire Teaching", "parliamentary_constituency": "Gainsborough", "lat": 53.397249, "lng": -0.775296}, {"locationId": "RY564", "locationName": "Newland Health Centre", "postalCode": "LN1 1XP", "nhs_ha": "East Midlands", "primary_care_trust": "Lincolnshire Teaching", "parliamentary_constituency": "Lincoln", "lat": 53.230238, "lng": -0.54426}, {"locationId": "RY567", "locationName": "Johnson Community Hospital", "postalCode": "PE11 3PB", "nhs_ha": "East Midlands", "primary_care_trust": "Lincolnshire Teaching", "parliamentary_constituency": "South Holland and The Deepings", "lat": 52.802684, "lng": -0.152663}, {"locationId": "RY568", "locationName": "John Coupland Hospital", "postalCode": "DN21 2TJ", "nhs_ha": "East Midlands", "primary_care_trust": "Lincolnshire Teaching", "parliamentary_constituency": "Gainsborough", "lat": 53.411846, "lng": -0.784791}, {"locationId": "RY571", "locationName": "The Neighbourhood Health & Wellbeing Centre", "postalCode": "LN2 5HP", "nhs_ha": "East Midlands", "primary_care_trust": "Lincolnshire Teaching", "parliamentary_constituency": "Lincoln", "lat": 53.2306, "lng": -0.531709}, {"locationId": "RY572", "locationName": "Louth County Hospital", "postalCode": "LN11 0EU", "nhs_ha": "East Midlands", "primary_care_trust": "Lincolnshire Teaching", "parliamentary_constituency": "Louth and Horncastle", "lat": 53.37101, "lng": -0.008582}, {"locationId": "RY583", "locationName": "The Butterfly Hospice", "postalCode": "PE21 9DH", "nhs_ha": "East Midlands", "primary_care_trust": "Lincolnshire Teaching", "parliamentary_constituency": "Boston and Skegness", "lat": 52.989952, "lng": -0.015624}, {"locationId": "RY584", "locationName": "Horncastle War Memorial Centre", "postalCode": "LN9 5DX", "nhs_ha": "East Midlands", "primary_care_trust": "Lincolnshire Teaching", "parliamentary_constituency": "Louth and Horncastle", "lat": 53.21022, "lng": -0.114361}, {"locationId": "RY590", "locationName": "Marisco Medical Centre", "postalCode": "LN12 2DP", "nhs_ha": "East Midlands", "primary_care_trust": "Lincolnshire Teaching", "parliamentary_constituency": "Louth and Horncastle", "lat": 53.335328, "lng": 0.264588}, {"locationId": "RY5FR", "locationName": "The Sidings Medical Practice", "postalCode": "PE21 8EG", "nhs_ha": "East Midlands", "primary_care_trust": "Lincolnshire Teaching", "parliamentary_constituency": "Boston and Skegness", "lat": 52.975942, "lng": -0.033522}, {"locationId": "RY5H1", "locationName": "Beech House", "postalCode": "LN5 7JH", "nhs_ha": "East Midlands", "primary_care_trust": "Lincolnshire Teaching", "parliamentary_constituency": "Lincoln", "lat": 53.226467, "lng": -0.52415}, {"locationId": "RY5K3", "locationName": "Crossroads Medical Practice", "postalCode": "LN6 8NH", "nhs_ha": "East Midlands", "primary_care_trust": "Lincolnshire Teaching", "parliamentary_constituency": "Sleaford and North Hykeham", "lat": 53.183432, "lng": -0.587134}, {"locationId": "RY5X0", "locationName": "The Arboretum", "postalCode": "LN2 5HU", "nhs_ha": "East Midlands", "primary_care_trust": "Lincolnshire Teaching", "parliamentary_constituency": "Lincoln", "lat": 53.230808, "lng": -0.52884}, {"locationId": "RY5X1", "locationName": "Bridge House", "postalCode": "NG34 8GG", "nhs_ha": "East Midlands", "primary_care_trust": "Lincolnshire Teaching", "parliamentary_constituency": "Sleaford and North Hykeham", "lat": 53.008852, "lng": -0.392521}, {"locationId": "RY5X3", "locationName": "The Portland Suite", "postalCode": "LN1 1XG", "nhs_ha": "East Midlands", "primary_care_trust": "Lincolnshire Teaching", "parliamentary_constituency": "Lincoln", "lat": 53.229716, "lng": -0.543454}, {"locationId": "RY5X8", "locationName": "Stamford Dental Clinic", "postalCode": "PE9 1UA", "nhs_ha": "East Midlands", "primary_care_trust": "Lincolnshire Teaching", "parliamentary_constituency": "Grantham and Stamford", "lat": 52.655371, "lng": -0.468751}, {"locationId": "RY5X9", "locationName": "Sleaford Dental Clinic", "postalCode": "NG34 7PJ", "nhs_ha": "East Midlands", "primary_care_trust": "Lincolnshire Teaching", "parliamentary_constituency": "Sleaford and North Hykeham", "lat": 52.999326, "lng": -0.411517}, {"locationId": "RY5Y0", "locationName": "Burton Road Surgery", "postalCode": "LN1 3LT", "nhs_ha": "East Midlands", "primary_care_trust": "Lincolnshire Teaching", "parliamentary_constituency": "Lincoln", "lat": 53.241046, "lng": -0.546666}, {"locationId": "RY5Y2", "locationName": "Pottergate Surgery", "postalCode": "DN21 2UQ", "nhs_ha": "East Midlands", "primary_care_trust": "Lincolnshire Teaching", "parliamentary_constituency": "Gainsborough", "lat": 53.411776, "lng": -0.780581}, {"locationId": "RY5Y4", "locationName": "Metheringham Surgery", "postalCode": "LN4 3DZ", "nhs_ha": "East Midlands", "primary_care_trust": "Lincolnshire Teaching", "parliamentary_constituency": "Sleaford and North Hykeham", "lat": 53.139159, "lng": -0.402592}, {"locationId": "RY5Z0", "locationName": "Skegness Dental Clinic", "postalCode": "PE25 2BX", "nhs_ha": "East Midlands", "primary_care_trust": "Lincolnshire Teaching", "parliamentary_constituency": "Boston and Skegness", "lat": 53.146257, "lng": 0.33598}, {"locationId": "RY5Z1", "locationName": "Cliff House Medical Practice", "postalCode": "LN1 3LJ", "nhs_ha": "East Midlands", "primary_care_trust": "Lincolnshire Teaching", "parliamentary_constituency": "Lincoln", "lat": 53.238877, "lng": -0.545016}, {"locationId": "RY5Z2", "locationName": "North Hykeham Health Centre", "postalCode": "LN6 9BA", "nhs_ha": "East Midlands", "primary_care_trust": "Lincolnshire Teaching", "parliamentary_constituency": "Sleaford and North Hykeham", "lat": 53.187345, "lng": -0.596465}, {"locationId": "RY5Z3", "locationName": "The Spalding GP Surgery", "postalCode": "PE11 3DT", "nhs_ha": "East Midlands", "primary_care_trust": "Lincolnshire Teaching", "parliamentary_constituency": "South Holland and The Deepings", "lat": 52.801469, "lng": -0.15089}, {"locationId": "RY5Z4", "locationName": "Birchwood Dental Centre", "postalCode": "LN6 0QQ", "nhs_ha": "East Midlands", "primary_care_trust": "Lincolnshire Teaching", "parliamentary_constituency": "Lincoln", "lat": 53.215749, "lng": -0.605376}, {"locationId": "RY5Z8", "locationName": "University Health Centre", "postalCode": "LN6 7GA", "nhs_ha": "East Midlands", "primary_care_trust": "Lincolnshire Teaching", "parliamentary_constituency": "Lincoln", "lat": 53.229537, "lng": -0.548748}, {"locationId": "RY5Z9", "locationName": "University Health Centre", "postalCode": "LN6 7GA", "nhs_ha": "East Midlands", "primary_care_trust": "Lincolnshire Teaching", "parliamentary_constituency": "Lincoln", "lat": 53.229537, "lng": -0.548748}, {"locationId": "RY622", "locationName": "Hannah House", "postalCode": "LS26 0DX", "nhs_ha": "Yorkshire and the Humber", "primary_care_trust": "Leeds", "parliamentary_constituency": "Elmet and Rothwell", "lat": 53.748757, "lng": -1.474148}, {"locationId": "RY632", "locationName": "Little Woodhouse Hall", "postalCode": "LS2 9NT", "nhs_ha": "Yorkshire and the Humber", "primary_care_trust": "Leeds", "parliamentary_constituency": "Leeds Central", "lat": 53.80293, "lng": -1.557057}, {"locationId": "RY651", "locationName": "South Yorkshire Police Custody Suite", "postalCode": "LS6 1PF", "nhs_ha": "Yorkshire and the Humber", "primary_care_trust": "Leeds", "parliamentary_constituency": "Leeds North West", "lat": 53.814971, "lng": -1.568473}, {"locationId": "RY663", "locationName": "York Street Health Practice", "postalCode": "LS9 8AA", "nhs_ha": "Yorkshire and the Humber", "primary_care_trust": "Leeds", "parliamentary_constituency": "Leeds Central", "lat": 53.796554, "lng": -1.532561}, {"locationId": "RY686", "locationName": "South Leeds Independence Centre", "postalCode": "LS11 7DB", "nhs_ha": "Yorkshire and the Humber", "primary_care_trust": "Leeds", "parliamentary_constituency": "Leeds Central", "lat": 53.767959, "lng": -1.557562}, {"locationId": "RY691", "locationName": "Young Offenders Institute HM YOI Wetherby", "postalCode": "LS22 5ED", "nhs_ha": "Yorkshire and the Humber", "primary_care_trust": "Leeds", "parliamentary_constituency": "Elmet and Rothwell", "lat": 53.935249, "lng": -1.36782}, {"locationId": "RY6X1", "locationName": "Community Intermediate Care Unit", "postalCode": "LS14 6WB", "nhs_ha": "Yorkshire and the Humber", "primary_care_trust": "Leeds", "parliamentary_constituency": "Leeds East", "lat": 53.804938, "lng": -1.471487}, {"locationId": "RY6X2", "locationName": "Community Rehabilitation Unit", "postalCode": "LS12 3QE", "nhs_ha": "Yorkshire and the Humber", "primary_care_trust": "Leeds", "parliamentary_constituency": "Leeds West", "lat": 53.799904, "lng": -1.612399}, {"locationId": "RY6X4", "locationName": "HMP Leeds", "postalCode": "LS12 2TJ", "nhs_ha": "Yorkshire and the Humber", "primary_care_trust": "Leeds", "parliamentary_constituency": "Leeds West", "lat": 53.795728, "lng": -1.57617}, {"locationId": "RY6X6", "locationName": "Head Quarters", "postalCode": "LS6 1PF", "nhs_ha": "Yorkshire and the Humber", "primary_care_trust": "Leeds", "parliamentary_constituency": "Leeds North West", "lat": 53.814971, "lng": -1.568473}, {"locationId": "RY6X7", "locationName": "Community Intermediate Care Unit (CICU)", "postalCode": "LS9 7TF", "nhs_ha": "Yorkshire and the Humber", "primary_care_trust": "Leeds", "parliamentary_constituency": "Leeds East", "lat": 53.806869, "lng": -1.520359}, {"locationId": "RY6Y2", "locationName": "Community Intermediate Care Unit", "postalCode": "LS97TF", "nhs_ha": "Yorkshire and the Humber", "primary_care_trust": "Leeds", "parliamentary_constituency": "Leeds East", "lat": 53.806869, "lng": -1.520359}, {"locationId": "RY6Y3", "locationName": "West Yorkshire Police Custody Suite", "postalCode": "LS6 1PF", "nhs_ha": "Yorkshire and the Humber", "primary_care_trust": "Leeds", "parliamentary_constituency": "Leeds North West", "lat": 53.814971, "lng": -1.568473}, {"locationId": "RY701", "locationName": "St Catherine'sHealth Centre", "postalCode": "CH42 0LQ", "nhs_ha": "North West", "primary_care_trust": "Wirral", "parliamentary_constituency": "Birkenhead", "lat": 53.380029, "lng": -3.026531}, {"locationId": "RY702", "locationName": "Eastham GP OOH", "postalCode": "CH62 9AN", "nhs_ha": "North West", "primary_care_trust": "Wirral", "parliamentary_constituency": "Wirral South", "lat": 53.311525, "lng": -2.967145}, {"locationId": "RY703", "locationName": "Victoria Central GPOOH", "postalCode": "CH44 5UF", "nhs_ha": "North West", "primary_care_trust": "Wirral", "parliamentary_constituency": "Wallasey", "lat": 53.415672, "lng": -3.045864}, {"locationId": "RY704", "locationName": "Arrowe Park Hospital GP OOH", "postalCode": "CH49 5PE", "nhs_ha": "North West", "primary_care_trust": "Wirral", "parliamentary_constituency": "Wirral West", "lat": 53.36964, "lng": -3.096815}, {"locationId": "RY717", "locationName": "Wirral Brook", "postalCode": "CH41 2QR", "nhs_ha": "North West", "primary_care_trust": "Wirral", "parliamentary_constituency": "Birkenhead", "lat": 53.388391, "lng": -3.030416}, {"locationId": "RY7W1", "locationName": "St Catherine'sDental Clinic", "postalCode": "CH42 0LQ", "nhs_ha": "North West", "primary_care_trust": "Wirral", "parliamentary_constituency": "Birkenhead", "lat": 53.380029, "lng": -3.026531}, {"locationId": "RY7X1", "locationName": "Eastham Walk In Centre", "postalCode": "CH62 9AN", "nhs_ha": "North West", "primary_care_trust": "Wirral", "parliamentary_constituency": "Wirral South", "lat": 53.311525, "lng": -2.967145}, {"locationId": "RY7X2", "locationName": "Victoria Central Hospital Walk In Centre", "postalCode": "CH44 5UF", "nhs_ha": "North West", "primary_care_trust": "Wirral", "parliamentary_constituency": "Wallasey", "lat": 53.415672, "lng": -3.045864}, {"locationId": "RY7X3", "locationName": "Arrowe Park Walk In Centre", "postalCode": "CH49 5PE", "nhs_ha": "North West", "primary_care_trust": "Wirral", "parliamentary_constituency": "Wirral West", "lat": 53.36964, "lng": -3.096815}, {"locationId": "RY7X4", "locationName": "Wirral Primary Care Assessment Unit", "postalCode": "CH49 5PE", "nhs_ha": "North West", "primary_care_trust": "Wirral", "parliamentary_constituency": "Wirral West", "lat": 53.36964, "lng": -3.096815}, {"locationId": "RY7X5", "locationName": "Leasowe Primary Care Centre", "postalCode": "CH46 2QQ", "nhs_ha": "North West", "primary_care_trust": "Wirral", "parliamentary_constituency": "Wallasey", "lat": 53.416622, "lng": -3.094473}, {"locationId": "RY7X6", "locationName": "Victoria Central Hospital Dental Service", "postalCode": "CH44 5UF", "nhs_ha": "North West", "primary_care_trust": "Wirral", "parliamentary_constituency": "Wallasey", "lat": 53.415672, "lng": -3.045864}, {"locationId": "RY7X7", "locationName": "Arrowe Park Dental Service General Anaesthetic Sedation Service", "postalCode": "CH49 5PE", "nhs_ha": "North West", "primary_care_trust": "Wirral", "parliamentary_constituency": "Wirral West", "lat": 53.36964, "lng": -3.096815}, {"locationId": "RY7X8", "locationName": "Clatterbridge Dental Service", "postalCode": "CH63 4JY", "nhs_ha": "North West", "primary_care_trust": "Wirral", "parliamentary_constituency": "Wirral South", "lat": 53.332884, "lng": -3.024137}, {"locationId": "RY7X9", "locationName": "Oxton Emergency Dental Service", "postalCode": "CH43 5RE", "nhs_ha": "North West", "primary_care_trust": "Wirral", "parliamentary_constituency": "Birkenhead", "lat": 53.3852, "lng": -3.037525}, {"locationId": "RY7Y1", "locationName": "Bridle Road Dental Service", "postalCode": "CH62 6AR", "nhs_ha": "North West", "primary_care_trust": "Wirral", "parliamentary_constituency": "Wirral South", "lat": 53.32299, "lng": -2.975557}, {"locationId": "RY7Y2", "locationName": "Moreton Dental Service", "postalCode": "CH46 8SA", "nhs_ha": "North West", "primary_care_trust": "Wirral", "parliamentary_constituency": "Wallasey", "lat": 53.403551, "lng": -3.111975}, {"locationId": "RY7Y3", "locationName": "Old Market House", "postalCode": "CH41 5AL", "nhs_ha": "North West", "primary_care_trust": "Wirral", "parliamentary_constituency": "Birkenhead", "lat": 53.390806, "lng": -3.016068}, {"locationId": "RY7Y4", "locationName": "Riverside Park Call Centre", "postalCode": "CH62 3QX", "nhs_ha": "North West", "primary_care_trust": "Wirral", "parliamentary_constituency": "Wirral South", "lat": 53.331723, "lng": -2.96592}, {"locationId": "RY7Y6", "locationName": "Devonshire Park Dental Centre", "postalCode": "CH42 7LX", "nhs_ha": "North West", "primary_care_trust": "Wirral", "parliamentary_constituency": "Birkenhead", "lat": 53.376021, "lng": -3.026389}, {"locationId": "RY7Y7", "locationName": "Wirral University Teaching Hospital Sexual Health Services", "postalCode": "CH49 5PE", "nhs_ha": "North West", "primary_care_trust": "Wirral", "parliamentary_constituency": "Wirral West", "lat": 53.36964, "lng": -3.096815}, {"locationId": "RY7Y9", "locationName": "All Day Health Centre", "postalCode": "CH49 5PE", "nhs_ha": "North West", "primary_care_trust": "Wirral", "parliamentary_constituency": "Wirral West", "lat": 53.36964, "lng": -3.096815}, {"locationId": "RY7Z1", "locationName": "Leasowe Personal Dental Services", "postalCode": "CH46 2QQ", "nhs_ha": "North West", "primary_care_trust": "Wirral", "parliamentary_constituency": "Wallasey", "lat": 53.416622, "lng": -3.094473}, {"locationId": "RY7Z2", "locationName": "St Catherine'sHealth Centre GP OOH", "postalCode": "CH42 0LQ", "nhs_ha": "North West", "primary_care_trust": "Wirral", "parliamentary_constituency": "Birkenhead", "lat": 53.380029, "lng": -3.026531}, {"locationId": "RY838", "locationName": "Whitworth Hospital", "postalCode": "DE4 2JD", "nhs_ha": "East Midlands", "primary_care_trust": "Derbyshire County", "parliamentary_constituency": "Derbyshire Dales", "lat": 53.150924, "lng": -1.575216}, {"locationId": "RY846", "locationName": "Ilkeston Hospital", "postalCode": "DE7 8LN", "nhs_ha": "East Midlands", "primary_care_trust": "Derbyshire County", "parliamentary_constituency": "Erewash", "lat": 52.988092, "lng": -1.320818}, {"locationId": "RY87V", "locationName": "St Oswald'sHospital", "postalCode": "DE6 1DR", "nhs_ha": "East Midlands", "primary_care_trust": "Derbyshire County", "parliamentary_constituency": "Derbyshire Dales", "lat": 53.012862, "lng": -1.737589}, {"locationId": "RY8AC", "locationName": "Loughborough Hospital", "postalCode": "LE11 5JY", "nhs_ha": "East Midlands", "primary_care_trust": "Leicestershire County and Rutland", "parliamentary_constituency": "Loughborough", "lat": 52.773291, "lng": -1.225946}, {"locationId": "RY8AH", "locationName": "Buxton Hospital", "postalCode": "SK17 9NJ", "nhs_ha": "East Midlands", "primary_care_trust": "Derbyshire County", "parliamentary_constituency": "High Peak", "lat": 53.248141, "lng": -1.908288}, {"locationId": "RY8AJ", "locationName": "Walton Hospital", "postalCode": "S40 3HW", "nhs_ha": "East Midlands", "primary_care_trust": "Derbyshire County", "parliamentary_constituency": "Chesterfield", "lat": 53.221288, "lng": -1.441882}, {"locationId": "RY8AK", "locationName": "Ash Green", "postalCode": "S42 7JE", "nhs_ha": "East Midlands", "primary_care_trust": "Derbyshire County", "parliamentary_constituency": "North East Derbyshire", "lat": 53.23967, "lng": -1.479477}, {"locationId": "RY8AM", "locationName": "Orchard Cottage", "postalCode": "DE4 2EU", "nhs_ha": "East Midlands", "primary_care_trust": "Derbyshire County", "parliamentary_constituency": "Derbyshire Dales", "lat": 53.160898, "lng": -1.587022}, {"locationId": "RY8AN", "locationName": "Rockley Core Unit", "postalCode": "NG20 8PL", "nhs_ha": "East Midlands", "primary_care_trust": "Derbyshire County", "parliamentary_constituency": "Bolsover", "lat": 53.203619, "lng": -1.218397}, {"locationId": "RY8AP", "locationName": "Robertson Road Core Unit", "postalCode": "SK17 7TB", "nhs_ha": "East Midlands", "primary_care_trust": "Derbyshire County", "parliamentary_constituency": "High Peak", "lat": 53.255603, "lng": -1.898439}, {"locationId": "RY8CY", "locationName": "St Lukes Hospital", "postalCode": "LE16 7BN", "nhs_ha": "East Midlands", "primary_care_trust": "Leicestershire County and Rutland", "parliamentary_constituency": "Harborough", "lat": 52.48721, "lng": -0.93109}, {"locationId": "RY8DE", "locationName": "Babington Hospital", "postalCode": "DE56 1WH", "nhs_ha": "East Midlands", "primary_care_trust": "Derbyshire County", "parliamentary_constituency": "Mid Derbyshire", "lat": 53.018944, "lng": -1.485847}, {"locationId": "RY8DF", "locationName": "Heanor Memorial Hospital", "postalCode": "DE75 7EA", "nhs_ha": "East Midlands", "primary_care_trust": "Derbyshire County", "parliamentary_constituency": "Amber Valley", "lat": 53.009963, "lng": -1.348092}, {"locationId": "RY8DG", "locationName": "Ripley Hospital", "postalCode": "DE5 3HE", "nhs_ha": "East Midlands", "primary_care_trust": "Derbyshire County", "parliamentary_constituency": "Amber Valley", "lat": 53.046983, "lng": -1.412407}, {"locationId": "RY8NA", "locationName": "Newholme Hospital", "postalCode": "DE45 1AD", "nhs_ha": "East Midlands", "primary_care_trust": "Derbyshire County", "parliamentary_constituency": "Derbyshire Dales", "lat": 53.218791, "lng": -1.67234}, {"locationId": "RY8NR", "locationName": "Clay Cross Hospital", "postalCode": "S45 9NZ", "nhs_ha": "East Midlands", "primary_care_trust": "Derbyshire County", "parliamentary_constituency": "North East Derbyshire", "lat": 53.167933, "lng": -1.407227}, {"locationId": "RY8NT", "locationName": "Bolsover Hospital", "postalCode": "S44 6DH", "nhs_ha": "East Midlands", "primary_care_trust": "Derbyshire County", "parliamentary_constituency": "Bolsover", "lat": 53.231547, "lng": -1.282515}, {"locationId": "RY8NW", "locationName": "Cavendish Hospital", "postalCode": "SK17 6TE", "nhs_ha": "East Midlands", "primary_care_trust": "Derbyshire County", "parliamentary_constituency": "High Peak", "lat": 53.262442, "lng": -1.921255}, {"locationId": "RY8W1", "locationName": "Primary Dental Care Unit", "postalCode": "LE4 7ZX", "nhs_ha": "East Midlands", "primary_care_trust": "Leicester City", "parliamentary_constituency": "Leicester East", "lat": 52.663187, "lng": -1.103823}, {"locationId": "RY8W2", "locationName": "The Dental Clinic", "postalCode": "LE5 3GH", "nhs_ha": "East Midlands", "primary_care_trust": "Leicester City", "parliamentary_constituency": "Leicester East", "lat": 52.641154, "lng": -1.108788}, {"locationId": "RY8W3", "locationName": "Hinckley Dental Clinic", "postalCode": "LE10 1DS", "nhs_ha": "East Midlands", "primary_care_trust": "Leicestershire County and Rutland", "parliamentary_constituency": "Bosworth", "lat": 52.541052, "lng": -1.367743}, {"locationId": "RY8W4", "locationName": "Pasley Road Dental Clinic", "postalCode": "LE2 9BU", "nhs_ha": "East Midlands", "primary_care_trust": "Leicester City", "parliamentary_constituency": "Leicester South", "lat": 52.591287, "lng": -1.146741}, {"locationId": "RY8W5", "locationName": "Melton Dental Clinic", "postalCode": "LE13 1SJ", "nhs_ha": "East Midlands", "primary_care_trust": "Leicestershire County and Rutland", "parliamentary_constituency": "Rutland and Melton", "lat": 52.765938, "lng": -0.877296}, {"locationId": "RY8W6", "locationName": "Westcotes Dental Clinic", "postalCode": "LE3 0LP", "nhs_ha": "East Midlands", "primary_care_trust": "Leicester City", "parliamentary_constituency": "Leicester West", "lat": 52.631332, "lng": -1.153587}, {"locationId": "RY8W7", "locationName": "Creswell and Langwith Primary Care Services", "postalCode": "S80 4HA", "nhs_ha": "East Midlands", "primary_care_trust": "Derbyshire County", "parliamentary_constituency": "Bolsover", "lat": 53.262654, "lng": -1.215835}, {"locationId": "RY8X1", "locationName": "Head Quarters (HQ)", "postalCode": "DE45 1AD", "nhs_ha": "East Midlands", "primary_care_trust": "Derbyshire County", "parliamentary_constituency": "Derbyshire Dales", "lat": 53.218791, "lng": -1.67234}, {"locationId": "RY8X2", "locationName": "Coalville Community Hospital", "postalCode": "LE67 4DE", "nhs_ha": "East Midlands", "primary_care_trust": "Leicestershire County and Rutland", "parliamentary_constituency": "North West Leicestershire", "lat": 52.722883, "lng": -1.349847}, {"locationId": "RY8X3", "locationName": "Castle Street Medical Centre", "postalCode": "S44 6PP", "nhs_ha": "East Midlands", "primary_care_trust": "Derbyshire County", "parliamentary_constituency": "Bolsover", "lat": 53.229627, "lng": -1.293753}, {"locationId": "RY8X4", "locationName": "Hinckley and District Hospital", "postalCode": "LE10 1DS", "nhs_ha": "East Midlands", "primary_care_trust": "Leicestershire County and Rutland", "parliamentary_constituency": "Bosworth", "lat": 52.541052, "lng": -1.367743}, {"locationId": "RY8X6", "locationName": "Melton Mowbray Hospital", "postalCode": "LE13 1SJ", "nhs_ha": "East Midlands", "primary_care_trust": "Leicestershire County and Rutland", "parliamentary_constituency": "Rutland and Melton", "lat": 52.765938, "lng": -0.877296}, {"locationId": "RY8X7", "locationName": "Market Harborough District Hospital", "postalCode": "LE16 9DD", "nhs_ha": "Not Found", "primary_care_trust": "Not Found", "parliamentary_constituency": "Not Found", "lat": 0, "lng": 0}, {"locationId": "RY8X8", "locationName": "Rutland Memorial Hospital", "postalCode": "LE15 6NT", "nhs_ha": "East Midlands", "primary_care_trust": "Leicestershire County and Rutland", "parliamentary_constituency": "Rutland and Melton", "lat": 52.670802, "lng": -0.737539}, {"locationId": "RY8X9", "locationName": "Dental Clinic - Loughborough Hospital", "postalCode": "LE11 5JY", "nhs_ha": "East Midlands", "primary_care_trust": "Leicestershire County and Rutland", "parliamentary_constituency": "Loughborough", "lat": 52.773291, "lng": -1.225946}, {"locationId": "RY8Z4", "locationName": "Ashby and District Community Hospital", "postalCode": "LE65 1DG", "nhs_ha": "Not Found", "primary_care_trust": "Not Found", "parliamentary_constituency": "Not Found", "lat": 0, "lng": 0}, {"locationId": "RY8Z5", "locationName": "Fielding Palmer Cottage Hospital", "postalCode": "LE17 4DZ", "nhs_ha": "East Midlands", "primary_care_trust": "Leicestershire County and Rutland", "parliamentary_constituency": "South Leicestershire", "lat": 52.457853, "lng": -1.1978}, {"locationId": "RY8Z6", "locationName": "Amberley Core Unit", "postalCode": "S21 4BA", "nhs_ha": "East Midlands", "primary_care_trust": "Derbyshire County", "parliamentary_constituency": "North East Derbyshire", "lat": 53.303726, "lng": -1.37148}, {"locationId": "RY8Z7", "locationName": "Ripley Medical Centre", "postalCode": "DE5 3HR", "nhs_ha": "East Midlands", "primary_care_trust": "Derbyshire County", "parliamentary_constituency": "Amber Valley", "lat": 53.04704, "lng": -1.405723}, {"locationId": "RY901", "locationName": "Hounslow Urgent Care Centre", "postalCode": "TW7 6AF", "nhs_ha": "London", "primary_care_trust": "Hounslow", "parliamentary_constituency": "Brentford and Isleworth", "lat": 51.473648, "lng": -0.324434}, {"locationId": "RY902", "locationName": "Teddington Memorial Hospital", "postalCode": "TW11 0JL", "nhs_ha": "London", "primary_care_trust": "Richmond and Twickenham", "parliamentary_constituency": "Twickenham", "lat": 51.425838, "lng": -0.340999}, {"locationId": "RY908", "locationName": "Thames House", "postalCode": "TW11 8HU", "nhs_ha": "London", "primary_care_trust": "Richmond and Twickenham", "parliamentary_constituency": "Twickenham", "lat": 51.427449, "lng": -0.326599}, {"locationId": "RYA05", "locationName": "Millennium Point", "postalCode": "DY5 1LX", "nhs_ha": "West Midlands", "primary_care_trust": "Dudley", "parliamentary_constituency": "Dudley South", "lat": 52.485661, "lng": -2.119039}, {"locationId": "RYAY1", "locationName": "Integrated Urgent Care Centre", "postalCode": "DY5 1LX", "nhs_ha": "West Midlands", "primary_care_trust": "Dudley", "parliamentary_constituency": "Dudley South", "lat": 52.485661, "lng": -2.119039}, {"locationId": "RYC01", "locationName": "East of England Ambulance Service NHS Trust HQ", "postalCode": "CB23 6EB", "nhs_ha": "Not Found", "primary_care_trust": "Not Found", "parliamentary_constituency": "Not Found", "lat": 0, "lng": 0}, {"locationId": "RYCE8", "locationName": "East of England Ambulance Service NHS Trust Headquarters", "postalCode": "SG8 6NA", "nhs_ha": "East of England", "primary_care_trust": "Cambridgeshire", "parliamentary_constituency": "South Cambridgeshire", "lat": 52.07658, "lng": 0.014173}, {"locationId": "RYCX1", "locationName": "East of England Ambulance Headquarters", "postalCode": "IP33 1HP", "nhs_ha": "East of England", "primary_care_trust": "Suffolk", "parliamentary_constituency": "Bury St Edmunds", "lat": 52.248507, "lng": 0.716561}, {"locationId": "RYD6A", "locationName": "South East Coast Ambulance Service NHS Trust Headquarters", "postalCode": "RH10 9BG", "nhs_ha": "South East Coast", "primary_care_trust": "West Sussex", "parliamentary_constituency": "Crawley", "lat": 51.133135, "lng": -0.168202}, {"locationId": "RYD8D", "locationName": "South East Coast Ambulance NHS Foundation Trust Headquarters", "postalCode": "RH10 9BG", "nhs_ha": "South East Coast", "primary_care_trust": "West Sussex", "parliamentary_constituency": "Crawley", "lat": 51.133135, "lng": -0.168202}, {"locationId": "RYEA3", "locationName": "South Central Ambulance Service NHS 111", "postalCode": "OX26 6HR", "nhs_ha": "South Central", "primary_care_trust": "Oxfordshire", "parliamentary_constituency": "Banbury", "lat": 51.891776, "lng": -1.14948}, {"locationId": "RYEA7", "locationName": "Hampshire and Isle of Wight Air Ambulance", "postalCode": "SP11 8PW", "nhs_ha": "South Central", "primary_care_trust": "Hampshire", "parliamentary_constituency": "North West Hampshire", "lat": 51.205959, "lng": -1.600911}, {"locationId": "RYF13", "locationName": "East Division Headquarters", "postalCode": "BH24 2RR", "nhs_ha": "South West", "primary_care_trust": "Dorset", "parliamentary_constituency": "Christchurch", "lat": 50.81726, "lng": -1.856578}, {"locationId": "RYF45", "locationName": "Trust HQ", "postalCode": "EX2 7HY", "nhs_ha": "South West", "primary_care_trust": "Devon", "parliamentary_constituency": "East Devon", "lat": 50.720169, "lng": -3.464744}, {"locationId": "RYG05", "locationName": "Highfield House", "postalCode": "CV11 4PW", "nhs_ha": "West Midlands", "primary_care_trust": "Warwickshire", "parliamentary_constituency": "Nuneaton", "lat": 52.514669, "lng": -1.455197}, {"locationId": "RYG31", "locationName": "CWP The Cedars", "postalCode": "CV12 9NH", "nhs_ha": "West Midlands", "primary_care_trust": "Warwickshire", "parliamentary_constituency": "Rugby", "lat": 52.475601, "lng": -1.4253}, {"locationId": "RYG34", "locationName": "20 Hampton Road", "postalCode": "B23 7JJ", "nhs_ha": "West Midlands", "primary_care_trust": "Birmingham East and North", "parliamentary_constituency": "Birmingham, Erdington", "lat": 52.522753, "lng": -1.860428}, {"locationId": "RYG35", "locationName": "CWP 7-8 Hancox Close", "postalCode": "CV33 9GD", "nhs_ha": "West Midlands", "primary_care_trust": "Warwickshire", "parliamentary_constituency": "Kenilworth and Southam", "lat": 52.319264, "lng": -1.462599}, {"locationId": "RYG37", "locationName": "Hawthorn Ward", "postalCode": "CV22 5PX", "nhs_ha": "West Midlands", "primary_care_trust": "Warwickshire", "parliamentary_constituency": "Rugby", "lat": 52.365275, "lng": -1.259031}, {"locationId": "RYG38", "locationName": "CWP 64-70 Holbrook Avenue", "postalCode": "CV21 2QQ", "nhs_ha": "West Midlands", "primary_care_trust": "Warwickshire", "parliamentary_constituency": "Rugby", "lat": 52.375796, "lng": -1.259679}, {"locationId": "RYG46", "locationName": "CWP The Poplars", "postalCode": "CV10 9NH", "nhs_ha": "West Midlands", "primary_care_trust": "Warwickshire", "parliamentary_constituency": "Nuneaton", "lat": 52.52392, "lng": -1.535433}, {"locationId": "RYG50", "locationName": "CWP The Willows", "postalCode": "CV12 9HG", "nhs_ha": "West Midlands", "primary_care_trust": "Warwickshire", "parliamentary_constituency": "North Warwickshire", "lat": 52.47522, "lng": -1.466764}, {"locationId": "RYG51", "locationName": "Hawkesbury Lodge", "postalCode": "CV6 6DT", "nhs_ha": "West Midlands", "primary_care_trust": "Coventry Teaching", "parliamentary_constituency": "Coventry North East", "lat": 52.449298, "lng": -1.480114}, {"locationId": "RYG52", "locationName": "21 Shirlett Close", "postalCode": "CV2 1PG", "nhs_ha": "West Midlands", "primary_care_trust": "Coventry Teaching", "parliamentary_constituency": "Coventry North East", "lat": 52.451119, "lng": -1.477208}, {"locationId": "RYG57", "locationName": "Bradbury House", "postalCode": "CV3 2FD", "nhs_ha": "West Midlands", "primary_care_trust": "Coventry Teaching", "parliamentary_constituency": "Coventry South", "lat": 52.39978, "lng": -1.446465}, {"locationId": "RYG61", "locationName": "Harry Salt House", "postalCode": "CV1 5NR", "nhs_ha": "West Midlands", "primary_care_trust": "Coventry Teaching", "parliamentary_constituency": "Coventry South", "lat": 52.411586, "lng": -1.499528}, {"locationId": "RYG79", "locationName": "St Michael'sHospital", "postalCode": "CV34 5QW", "nhs_ha": "West Midlands", "primary_care_trust": "Warwickshire", "parliamentary_constituency": "Warwick and Leamington", "lat": 52.288546, "lng": -1.594095}, {"locationId": "RYG81", "locationName": "Woodloes Avenue", "postalCode": "CV34 5XN", "nhs_ha": "West Midlands", "primary_care_trust": "Warwickshire", "parliamentary_constituency": "Warwick and Leamington", "lat": 52.293609, "lng": -1.585835}, {"locationId": "RYG87", "locationName": "Stratford Healthcare", "postalCode": "CV37 6HJ", "nhs_ha": "West Midlands", "primary_care_trust": "Warwickshire", "parliamentary_constituency": "Stratford-on-Avon", "lat": 52.194836, "lng": -1.71272}, {"locationId": "RYG92", "locationName": "Aspen Centre", "postalCode": "CV34 5BW", "nhs_ha": "West Midlands", "primary_care_trust": "Warwickshire", "parliamentary_constituency": "Warwick and Leamington", "lat": 52.289965, "lng": -1.583203}, {"locationId": "RYG94", "locationName": "Admirals Court", "postalCode": "CV22 7LW", "nhs_ha": "Not Found", "primary_care_trust": "Not Found", "parliamentary_constituency": "Not Found", "lat": 0, "lng": 0}, {"locationId": "RYG96", "locationName": "Brooklands", "postalCode": "B37 7HL", "nhs_ha": "West Midlands", "primary_care_trust": "Solihull", "parliamentary_constituency": "Meriden", "lat": 52.4712, "lng": -1.744102}, {"locationId": "RYGCL", "locationName": "Ashby House", "postalCode": "CV11 6QL", "nhs_ha": "West Midlands", "primary_care_trust": "Warwickshire", "parliamentary_constituency": "Nuneaton", "lat": 52.499997, "lng": -1.415554}, {"locationId": "RYGCR", "locationName": "Wayside House", "postalCode": "CV6 6NY", "nhs_ha": "West Midlands", "primary_care_trust": "Coventry Teaching", "parliamentary_constituency": "Coventry North East", "lat": 52.457137, "lng": -1.486518}, {"locationId": "RYGCS", "locationName": "Gramer House/Holly House", "postalCode": "CV9 1QN", "nhs_ha": "West Midlands", "primary_care_trust": "Warwickshire", "parliamentary_constituency": "North Warwickshire", "lat": 52.56788, "lng": -1.530661}, {"locationId": "RYGCW", "locationName": "Manor Hospital", "postalCode": "CV11 5HX", "nhs_ha": "West Midlands", "primary_care_trust": "Warwickshire", "parliamentary_constituency": "Nuneaton", "lat": 52.526988, "lng": -1.477708}, {"locationId": "RYGCY", "locationName": "58 Park Paling", "postalCode": "CV3 5LJ", "nhs_ha": "West Midlands", "primary_care_trust": "Coventry Teaching", "parliamentary_constituency": "Coventry South", "lat": 52.391505, "lng": -1.495855}, {"locationId": "RYGDA", "locationName": "137 Wall Hill Road", "postalCode": "CV5 9EL", "nhs_ha": "West Midlands", "primary_care_trust": "Coventry Teaching", "parliamentary_constituency": "Coventry North West", "lat": 52.445568, "lng": -1.55534}, {"locationId": "RYGEF", "locationName": "The Birches", "postalCode": "CV2 2BG", "nhs_ha": "West Midlands", "primary_care_trust": "Coventry Teaching", "parliamentary_constituency": "Coventry North East", "lat": 52.423525, "lng": -1.439233}, {"locationId": "RYGEJ", "locationName": "2 Dover Street", "postalCode": "CV1 3DB", "nhs_ha": "West Midlands", "primary_care_trust": "Coventry Teaching", "parliamentary_constituency": "Coventry North West", "lat": 52.409504, "lng": -1.519715}, {"locationId": "RYGEW", "locationName": "Longford Primary Care Centre", "postalCode": "CV6 6DR", "nhs_ha": "West Midlands", "primary_care_trust": "Coventry Teaching", "parliamentary_constituency": "Coventry North East", "lat": 52.449933, "lng": -1.48555}, {"locationId": "RYGGQ", "locationName": "Shirley House", "postalCode": "B90 2DS", "nhs_ha": "West Midlands", "primary_care_trust": "Solihull", "parliamentary_constituency": "Solihull", "lat": 52.406797, "lng": -1.830586}, {"locationId": "RYGGR", "locationName": "Ivy Lodge", "postalCode": "B37 7HJ", "nhs_ha": "West Midlands", "primary_care_trust": "Solihull", "parliamentary_constituency": "Meriden", "lat": 52.466897, "lng": -1.745923}, {"locationId": "RYGGV", "locationName": "Lyndon House", "postalCode": "B92 7QW", "nhs_ha": "West Midlands", "primary_care_trust": "Solihull", "parliamentary_constituency": "Solihull", "lat": 52.448633, "lng": -1.794186}, {"locationId": "RYGHQ", "locationName": "Caludon Centre", "postalCode": "CV2 2TE", "nhs_ha": "West Midlands", "primary_care_trust": "Coventry Teaching", "parliamentary_constituency": "Coventry North East", "lat": 52.42244, "lng": -1.445534}, {"locationId": "RYGX2", "locationName": "Coventry and Warwickshire Partnership NHS Trust - 20 Hampton Road", "postalCode": "B23 7JJ", "nhs_ha": "West Midlands", "primary_care_trust": "Birmingham East and North", "parliamentary_constituency": "Birmingham, Erdington", "lat": 52.522753, "lng": -1.860428}, {"locationId": "RYHX1", "locationName": "NHS Direct HQ", "postalCode": "SE1 9HA", "nhs_ha": "London", "primary_care_trust": "Southwark", "parliamentary_constituency": "Bermondsey and Old Southwark", "lat": 51.507928, "lng": -0.095279}, {"locationId": "RYHX2", "locationName": "NHS Direct Head Office", "postalCode": "E1 8EU", "nhs_ha": "London", "primary_care_trust": "Tower Hamlets", "parliamentary_constituency": "Bethnal Green and Bow", "lat": 51.512913, "lng": -0.070196}, {"locationId": "RYJ01", "locationName": "St Mary'sHospital", "postalCode": "W2 1NY", "nhs_ha": "London", "primary_care_trust": "Westminster", "parliamentary_constituency": "Cities of London and Westminster", "lat": 51.516969, "lng": -0.173569}, {"locationId": "RYJ02", "locationName": "Charing Cross Hospital", "postalCode": "W6 8RF", "nhs_ha": "London", "primary_care_trust": "Hammersmith and Fulham", "parliamentary_constituency": "Hammersmith", "lat": 51.487045, "lng": -0.219935}, {"locationId": "RYJ03", "locationName": "Hammersmith Hospitals", "postalCode": "W12 0AE", "nhs_ha": "London", "primary_care_trust": "Hammersmith and Fulham", "parliamentary_constituency": "Hammersmith", "lat": 51.517632, "lng": -0.240435}, {"locationId": "RYJ04", "locationName": "Queen Charlottes and Chelsea Hospital", "postalCode": "W12 0AE", "nhs_ha": "London", "primary_care_trust": "Hammersmith and Fulham", "parliamentary_constituency": "Hammersmith", "lat": 51.517632, "lng": -0.240435}, {"locationId": "RYJ05", "locationName": "St Charles and Hammersmith Renal Centres", "postalCode": "W10 6DZ", "nhs_ha": "London", "primary_care_trust": "Kensington and Chelsea", "parliamentary_constituency": "Kensington", "lat": 51.522362, "lng": -0.217218}, {"locationId": "RYJ07", "locationName": "Western Eye Hospital", "postalCode": "NW1 5QH", "nhs_ha": "London", "primary_care_trust": "Westminster", "parliamentary_constituency": "Cities of London and Westminster", "lat": 51.520703, "lng": -0.16333}, {"locationId": "RYJ51", "locationName": "Hayes Renal Centre", "postalCode": "UB3 2RR", "nhs_ha": "London", "primary_care_trust": "Hillingdon", "parliamentary_constituency": "Hayes and Harlington", "lat": 51.521721, "lng": -0.423579}, {"locationId": "RYJX1", "locationName": "Brent Renal Centre", "postalCode": "NW10 7NS", "nhs_ha": "London", "primary_care_trust": "Brent Teaching", "parliamentary_constituency": "Brent Central", "lat": 51.530936, "lng": -0.269161}, {"locationId": "RYJX2", "locationName": "Northwick Park Renal Centre", "postalCode": "HA1 3UJ", "nhs_ha": "London", "primary_care_trust": "Brent Teaching", "parliamentary_constituency": "Brent North", "lat": 51.575407, "lng": -0.322037}, {"locationId": "RYJX3", "locationName": "Watford Renal Centre", "postalCode": "WD18 0HB", "nhs_ha": "East of England", "primary_care_trust": "Hertfordshire", "parliamentary_constituency": "Watford", "lat": 51.648921, "lng": -0.404187}, {"locationId": "RYJX4", "locationName": "West Middlesex Renal Centre", "postalCode": "TW7 6AF", "nhs_ha": "London", "primary_care_trust": "Hounslow", "parliamentary_constituency": "Brentford and Isleworth", "lat": 51.473648, "lng": -0.324434}, {"locationId": "RYJX5", "locationName": "Ealing Renal Satellite Unit", "postalCode": "UB1 3HW", "nhs_ha": "London", "primary_care_trust": "Ealing", "parliamentary_constituency": "Ealing, Southall", "lat": 51.507606, "lng": -0.345495}, {"locationId": "RYK01", "locationName": "Bloxwich Hospital", "postalCode": "WS3 2JJ", "nhs_ha": "West Midlands", "primary_care_trust": "Walsall Teaching", "parliamentary_constituency": "Walsall North", "lat": 52.613749, "lng": -2.004845}, {"locationId": "RYK10", "locationName": "Dorothy Pattison Hospital", "postalCode": "WS2 9XH", "nhs_ha": "West Midlands", "primary_care_trust": "Walsall Teaching", "parliamentary_constituency": "Walsall South", "lat": 52.583281, "lng": -2.0019}, {"locationId": "RYK33", "locationName": "Trust Headquarters", "postalCode": "DY2 8PS", "nhs_ha": "West Midlands", "primary_care_trust": "Dudley", "parliamentary_constituency": "Dudley North", "lat": 52.508328, "lng": -2.084448}, {"locationId": "RYK34", "locationName": "Bushey Fields Hospital", "postalCode": "DY1 2LZ", "nhs_ha": "West Midlands", "primary_care_trust": "Dudley", "parliamentary_constituency": "Dudley North", "lat": 52.502901, "lng": -2.116853}, {"locationId": "RYQ10", "locationName": "Queen Mary'sHospital, Sidcup", "postalCode": "DA14 6LT", "nhs_ha": "London", "primary_care_trust": "Bexley", "parliamentary_constituency": "Old Bexley and Sidcup", "lat": 51.419041, "lng": 0.101687}, {"locationId": "RYQ30", "locationName": "Princess Royal University Hospital", "postalCode": "BR6 8ND", "nhs_ha": "London", "primary_care_trust": "Bromley", "parliamentary_constituency": "Orpington", "lat": 51.366243, "lng": 0.059146}, {"locationId": "RYQ32", "locationName": "Orpington Hospital", "postalCode": "BR6 9JU", "nhs_ha": "London", "primary_care_trust": "Bromley", "parliamentary_constituency": "Orpington", "lat": 51.362502, "lng": 0.09515}, {"locationId": "RYQ50", "locationName": "Queen Elizabeth Hospital, Woolwich", "postalCode": "SE18 4QH", "nhs_ha": "London", "primary_care_trust": "Greenwich Teaching", "parliamentary_constituency": "Greenwich and Woolwich", "lat": 51.478193, "lng": 0.050043}, {"locationId": "RYR14", "locationName": "Southlands Hospital", "postalCode": "BN43 6TQ", "nhs_ha": "South East Coast", "primary_care_trust": "West Sussex", "parliamentary_constituency": "East Worthing and Shoreham", "lat": 50.840752, "lng": -0.256119}, {"locationId": "RYR16", "locationName": "St Richard'sHospital", "postalCode": "PO19 6SE", "nhs_ha": "South East Coast", "primary_care_trust": "West Sussex", "parliamentary_constituency": "Chichester", "lat": 50.843553, "lng": -0.768027}, {"locationId": "RYR18", "locationName": "Worthing Hospital", "postalCode": "BN11 2DH", "nhs_ha": "South East Coast", "primary_care_trust": "West Sussex", "parliamentary_constituency": "Worthing West", "lat": 50.816691, "lng": -0.363429}, {"locationId": "RYR33", "locationName": "Sexual Health Clinic", "postalCode": "BN11 3JN", "nhs_ha": "South East Coast", "primary_care_trust": "West Sussex", "parliamentary_constituency": "Worthing West", "lat": 50.809888, "lng": -0.381778}, {"locationId": "RYRX2", "locationName": "Crawley Sexual Health Clinic", "postalCode": "RH11 7DH", "nhs_ha": "South East Coast", "primary_care_trust": "West Sussex", "parliamentary_constituency": "Crawley", "lat": 51.1166, "lng": -0.197375}, {"locationId": "RYV01", "locationName": "Brookfields Hospital", "postalCode": "CB1 3DF", "nhs_ha": "East of England", "primary_care_trust": "Cambridgeshire", "parliamentary_constituency": "Cambridge", "lat": 52.197136, "lng": 0.15083}, {"locationId": "RYV02", "locationName": "North Cambridgeshire Hospital", "postalCode": "PE13 3AB", "nhs_ha": "East of England", "primary_care_trust": "Cambridgeshire", "parliamentary_constituency": "North East Cambridgeshire", "lat": 52.664936, "lng": 0.163913}, {"locationId": "RYV03", "locationName": "Princess of Wales Hospital", "postalCode": "CB6 1DN", "nhs_ha": "East of England", "primary_care_trust": "Cambridgeshire", "parliamentary_constituency": "South East Cambridgeshire", "lat": 52.413145, "lng": 0.275488}, {"locationId": "RYV04", "locationName": "Doddington Hospital", "postalCode": "PE15 0WD", "nhs_ha": "East of England", "primary_care_trust": "Cambridgeshire", "parliamentary_constituency": "North East Cambridgeshire", "lat": 52.499016, "lng": 0.054495}, {"locationId": "RYV05", "locationName": "Hinchingbrooke Hospital", "postalCode": "PE29 6NT", "nhs_ha": "East of England", "primary_care_trust": "Cambridgeshire", "parliamentary_constituency": "Huntingdon", "lat": 52.33335, "lng": -0.202679}, {"locationId": "RYV06", "locationName": "HQ The Priory", "postalCode": "PE27 5BB", "nhs_ha": "East of England", "primary_care_trust": "Cambridgeshire", "parliamentary_constituency": "Huntingdon", "lat": 52.321913, "lng": -0.07226}, {"locationId": "RYV07", "locationName": "Cambridge Access Centre", "postalCode": "CB5 8HB", "nhs_ha": "East of England", "primary_care_trust": "Cambridgeshire", "parliamentary_constituency": "Cambridge", "lat": 52.20875, "lng": 0.138701}, {"locationId": "RYV08", "locationName": "Dental Access Centre Wisbech", "postalCode": "PE13 1HL", "nhs_ha": "East of England", "primary_care_trust": "Cambridgeshire", "parliamentary_constituency": "North East Cambridgeshire", "lat": 52.665061, "lng": 0.162485}, {"locationId": "RYV61", "locationName": "Head Quarters", "postalCode": "PE27 4LG", "nhs_ha": "East of England", "primary_care_trust": "Cambridgeshire", "parliamentary_constituency": "Huntingdon", "lat": 52.322863, "lng": -0.067127}, {"locationId": "RYVA8", "locationName": "Dental Access Centre Peterborough", "postalCode": "PE1 1TN", "nhs_ha": "East of England", "primary_care_trust": "Peterborough", "parliamentary_constituency": "Peterborough", "lat": 52.573848, "lng": -0.241219}, {"locationId": "RYVX1", "locationName": "Walk in Centre", "postalCode": "LU1 2BJ", "nhs_ha": "East of England", "primary_care_trust": "Luton", "parliamentary_constituency": "Luton South", "lat": 51.877892, "lng": -0.416956}, {"locationId": "RYVX2", "locationName": "Cambridgeshire Community Services NHS Trust at West Suffolk Hospital", "postalCode": "IP33 2QZ", "nhs_ha": "East of England", "primary_care_trust": "Suffolk", "parliamentary_constituency": "Bury St Edmunds", "lat": 52.231662, "lng": 0.709176}, {"locationId": "RYVX3", "locationName": "Cambridgeshire Community Services NHS Trust at Ipswich Hospital", "postalCode": "IP4 5PD", "nhs_ha": "East of England", "primary_care_trust": "Suffolk", "parliamentary_constituency": "Ipswich", "lat": 52.056849, "lng": 1.197915}, {"locationId": "RYVX5", "locationName": "Edwin Lobo Centre", "postalCode": "LU4 8QR", "nhs_ha": "East of England", "primary_care_trust": "Luton", "parliamentary_constituency": "Luton North", "lat": 51.892971, "lng": -0.468657}, {"locationId": "RYVX6", "locationName": "Walk-in-Centre", "postalCode": "LU1 2SE", "nhs_ha": "East of England", "primary_care_trust": "Luton", "parliamentary_constituency": "Luton South", "lat": 51.877636, "lng": -0.416054}, {"locationId": "RYVX7", "locationName": "Respite House", "postalCode": "LU3 1BB", "nhs_ha": "East of England", "primary_care_trust": "Luton", "parliamentary_constituency": "Luton South", "lat": 51.887094, "lng": -0.423941}, {"locationId": "RYVX8", "locationName": "Luton Treatment Centre", "postalCode": "LU1 1AR", "nhs_ha": "East of England", "primary_care_trust": "Luton", "parliamentary_constituency": "Luton South", "lat": 51.880639, "lng": -0.424661}, {"locationId": "RYVX9", "locationName": "Learning and Development Centre", "postalCode": "LU1 2RD", "nhs_ha": "East of England", "primary_care_trust": "Luton", "parliamentary_constituency": "Luton South", "lat": 51.879639, "lng": -0.419858}, {"locationId": "RYVY1", "locationName": "Edwin Lobo Unit, Redgrave Children and Young Peoples Centre", "postalCode": "LU3 3QN", "nhs_ha": "East of England", "primary_care_trust": "Luton", "parliamentary_constituency": "Luton North", "lat": 51.918004, "lng": -0.450138}, {"locationId": "RYVY2", "locationName": "Cambridgeshire Community Services NHS Trust Out of Hours Services at City Care Centre", "postalCode": "PE3 6DB", "nhs_ha": "East of England", "primary_care_trust": "Peterborough", "parliamentary_constituency": "Peterborough", "lat": 52.574107, "lng": -0.258726}, {"locationId": "RYVY4", "locationName": "Intermediate Care Unit", "postalCode": "PE3 6DB", "nhs_ha": "East of England", "primary_care_trust": "Peterborough", "parliamentary_constituency": "Peterborough", "lat": 52.574107, "lng": -0.258726}, {"locationId": "RYVY5", "locationName": "The Atrium", "postalCode": "LU1 3BE", "nhs_ha": "East of England", "primary_care_trust": "Luton", "parliamentary_constituency": "Luton South", "lat": 51.877136, "lng": -0.412929}, {"locationId": "RYVY6", "locationName": "Futures House", "postalCode": "LU3 3QB", "nhs_ha": "East of England", "primary_care_trust": "Luton", "parliamentary_constituency": "Luton North", "lat": 51.918627, "lng": -0.454438}, {"locationId": "RYVY7", "locationName": "Orwell Sexual Health Clinic", "postalCode": "IP3 9PZ", "nhs_ha": "Not Found", "primary_care_trust": "Not Found", "parliamentary_constituency": "Not Found", "lat": 0, "lng": 0}, {"locationId": "RYVY8", "locationName": "Headquarters", "postalCode": "PE27 4LG", "nhs_ha": "East of England", "primary_care_trust": "Cambridgeshire", "parliamentary_constituency": "Huntingdon", "lat": 52.322863, "lng": -0.067127}, {"locationId": "RYW01", "locationName": "Community Unit 27", "postalCode": "B75 7RR", "nhs_ha": "West Midlands", "primary_care_trust": "Birmingham East and North", "parliamentary_constituency": "Sutton Coldfield", "lat": 52.567366, "lng": -1.812043}, {"locationId": "RYW02", "locationName": "Community Unit 29", "postalCode": "B9 5SS", "nhs_ha": "West Midlands", "primary_care_trust": "Birmingham East and North", "parliamentary_constituency": "Birmingham, Hodge Hill", "lat": 52.480218, "lng": -1.829966}, {"locationId": "RYW04", "locationName": "Perry Tree Centre", "postalCode": "B23 5BX", "nhs_ha": "West Midlands", "primary_care_trust": "Birmingham East and North", "parliamentary_constituency": "Birmingham, Erdington", "lat": 52.540096, "lng": -1.869352}, {"locationId": "RYW13", "locationName": "Riverside Lodge", "postalCode": "B10 9JH", "nhs_ha": "West Midlands", "primary_care_trust": "Birmingham East and North", "parliamentary_constituency": "Birmingham, Hodge Hill", "lat": 52.472876, "lng": -1.834655}, {"locationId": "RYW14", "locationName": "Waterlinks House", "postalCode": "B7 4AA", "nhs_ha": "West Midlands", "primary_care_trust": "Heart of Birmingham Teaching", "parliamentary_constituency": "Birmingham, Ladywood", "lat": 52.49269, "lng": -1.884177}, {"locationId": "RYW21", "locationName": "Birmingham Dental Hospital", "postalCode": "B4 6NN", "nhs_ha": "Not Found", "primary_care_trust": "Not Found", "parliamentary_constituency": "Not Found", "lat": 0, "lng": 0}, {"locationId": "RYW22", "locationName": "Sheldon Nursing Home", "postalCode": "B31 5EJ", "nhs_ha": "West Midlands", "primary_care_trust": "South Birmingham", "parliamentary_constituency": "Birmingham, Northfield", "lat": 52.404155, "lng": -1.99279}, {"locationId": "RYW23", "locationName": "Moseley Hall Hospital", "postalCode": "B13 8JL", "nhs_ha": "West Midlands", "primary_care_trust": "South Birmingham", "parliamentary_constituency": "Birmingham, Hall Green", "lat": 52.445923, "lng": -1.892891}, {"locationId": "RYW24", "locationName": "West Heath Hospital", "postalCode": "B38 8HR", "nhs_ha": "West Midlands", "primary_care_trust": "South Birmingham", "parliamentary_constituency": "Birmingham, Northfield", "lat": 52.398207, "lng": -1.953778}, {"locationId": "RYW37", "locationName": "Birmingham Community Healthcare NHS Trust Headquarters", "postalCode": "B7 4BN", "nhs_ha": "West Midlands", "primary_care_trust": "Heart of Birmingham Teaching", "parliamentary_constituency": "Birmingham, Ladywood", "lat": 52.487324, "lng": -1.885825}, {"locationId": "RYW65", "locationName": "Tessall Lane", "postalCode": "B31 5EN", "nhs_ha": "West Midlands", "primary_care_trust": "South Birmingham", "parliamentary_constituency": "Birmingham, Northfield", "lat": 52.404931, "lng": -1.993312}, {"locationId": "RYW6A", "locationName": "Earlswood Road", "postalCode": "B30 3QZ", "nhs_ha": "West Midlands", "primary_care_trust": "South Birmingham", "parliamentary_constituency": "Birmingham, Selly Oak", "lat": 52.411771, "lng": -1.905147}, {"locationId": "RYW77", "locationName": "Edgewood Road Children'sCentre", "postalCode": "B38 9RU", "nhs_ha": "West Midlands", "primary_care_trust": "South Birmingham", "parliamentary_constituency": "Birmingham, Northfield", "lat": 52.392221, "lng": -1.936621}, {"locationId": "RYWD5", "locationName": "Forest Road", "postalCode": "B13 9DL", "nhs_ha": "West Midlands", "primary_care_trust": "South Birmingham", "parliamentary_constituency": "Birmingham, Hall Green", "lat": 52.44691, "lng": -1.881575}, {"locationId": "RYWF7", "locationName": "Kingswood Drive", "postalCode": "B30 3QX", "nhs_ha": "West Midlands", "primary_care_trust": "South Birmingham", "parliamentary_constituency": "Birmingham, Selly Oak", "lat": 52.40929, "lng": -1.909864}, {"locationId": "RYWK5", "locationName": "Norman Power", "postalCode": "B16 8JJ", "nhs_ha": "West Midlands", "primary_care_trust": "Heart of Birmingham Teaching", "parliamentary_constituency": "Birmingham, Ladywood", "lat": 52.475003, "lng": -1.92552}, {"locationId": "RYWQ1", "locationName": "Handsworth Wood Road", "postalCode": "B20 2PJ", "nhs_ha": "West Midlands", "primary_care_trust": "Heart of Birmingham Teaching", "parliamentary_constituency": "Birmingham, Perry Barr", "lat": 52.518589, "lng": -1.930074}, {"locationId": "RYWT5", "locationName": "Elliott Lodge", "postalCode": "B30 3QF", "nhs_ha": "West Midlands", "primary_care_trust": "South Birmingham", "parliamentary_constituency": "Birmingham, Selly Oak", "lat": 52.410313, "lng": -1.903577}, {"locationId": "RYWX1", "locationName": "Birmingham Dental Hospital and School of Dentistry", "postalCode": "B5 7EG", "nhs_ha": "West Midlands", "primary_care_trust": "South Birmingham", "parliamentary_constituency": "Birmingham, Edgbaston", "lat": 52.45037, "lng": -1.916521}, {"locationId": "RYWX2", "locationName": "Riverside Lodge", "postalCode": "B10 9JH", "nhs_ha": "West Midlands", "primary_care_trust": "Birmingham East and North", "parliamentary_constituency": "Birmingham, Hodge Hill", "lat": 52.472876, "lng": -1.834655}, {"locationId": "RYWX4", "locationName": "Bristol Rd South", "postalCode": "B31 2ST", "nhs_ha": "West Midlands", "primary_care_trust": "South Birmingham", "parliamentary_constituency": "Birmingham, Northfield", "lat": 52.39995, "lng": -1.98467}, {"locationId": "RYWX6", "locationName": "The Bungalow", "postalCode": "B10 9JH", "nhs_ha": "West Midlands", "primary_care_trust": "Birmingham East and North", "parliamentary_constituency": "Birmingham, Hodge Hill", "lat": 52.472876, "lng": -1.834655}, {"locationId": "RYWX7", "locationName": "Birmingham Community Assessment & Treatment Service", "postalCode": "B30 3QY", "nhs_ha": "West Midlands", "primary_care_trust": "South Birmingham", "parliamentary_constituency": "Birmingham, Selly Oak", "lat": 52.412409, "lng": -1.904396}, {"locationId": "RYWX8", "locationName": "Bevis House", "postalCode": "B30 3QF", "nhs_ha": "West Midlands", "primary_care_trust": "South Birmingham", "parliamentary_constituency": "Birmingham, Selly Oak", "lat": 52.410313, "lng": -1.903577}, {"locationId": "RYWY1", "locationName": "Sayer House", "postalCode": "B30 3QZ", "nhs_ha": "West Midlands", "primary_care_trust": "South Birmingham", "parliamentary_constituency": "Birmingham, Selly Oak", "lat": 52.411771, "lng": -1.905147}, {"locationId": "RYWY2", "locationName": "Swan House", "postalCode": "B30 3QF", "nhs_ha": "West Midlands", "primary_care_trust": "South Birmingham", "parliamentary_constituency": "Birmingham, Selly Oak", "lat": 52.410313, "lng": -1.903577}, {"locationId": "RYWY3", "locationName": "Springfield Road", "postalCode": "B13 8NE", "nhs_ha": "West Midlands", "primary_care_trust": "South Birmingham", "parliamentary_constituency": "Birmingham, Hall Green", "lat": 52.443409, "lng": -1.896634}, {"locationId": "RYWY4", "locationName": "Lawrence House", "postalCode": "B30 3QZ", "nhs_ha": "West Midlands", "primary_care_trust": "South Birmingham", "parliamentary_constituency": "Birmingham, Selly Oak", "lat": 52.411771, "lng": -1.905147}, {"locationId": "RYWY5", "locationName": "Stacey Drive", "postalCode": "B13 0QT", "nhs_ha": "West Midlands", "primary_care_trust": "South Birmingham", "parliamentary_constituency": "Birmingham, Selly Oak", "lat": 52.422038, "lng": -1.87937}, {"locationId": "RYWY6", "locationName": "Dove House", "postalCode": "B30 3QB", "nhs_ha": "Not Found", "primary_care_trust": "Not Found", "parliamentary_constituency": "Not Found", "lat": 0, "lng": 0}, {"locationId": "RYWY7", "locationName": "Nineveh House", "postalCode": "B21 0SY", "nhs_ha": "West Midlands", "primary_care_trust": "Heart of Birmingham Teaching", "parliamentary_constituency": "Birmingham, Ladywood", "lat": 52.499533, "lng": -1.934066}, {"locationId": "RYWY9", "locationName": "Ann Marie Howes Centre", "postalCode": "B26 2DS", "nhs_ha": "West Midlands", "primary_care_trust": "Birmingham East and North", "parliamentary_constituency": "Birmingham, Yardley", "lat": 52.465073, "lng": -1.777727}, {"locationId": "RYWZ2", "locationName": "HMP Prison Winson Green", "postalCode": "B18 4AS", "nhs_ha": "West Midlands", "primary_care_trust": "Heart of Birmingham Teaching", "parliamentary_constituency": "Birmingham, Ladywood", "lat": 52.492487, "lng": -1.93851}, {"locationId": "RYX01", "locationName": "St Charles Urgent Care Centre", "postalCode": "W10 6DZ", "nhs_ha": "London", "primary_care_trust": "Kensington and Chelsea", "parliamentary_constituency": "Kensington", "lat": 51.522362, "lng": -0.217218}, {"locationId": "RYX02", "locationName": "Soho NHS Walk-in Centre", "postalCode": "W1D 3HZ", "nhs_ha": "London", "primary_care_trust": "Westminster", "parliamentary_constituency": "Cities of London and Westminster", "lat": 51.514524, "lng": -0.131914}, {"locationId": "RYX09", "locationName": "Soho Square General Practice", "postalCode": "W1D 3HZ", "nhs_ha": "London", "primary_care_trust": "Westminster", "parliamentary_constituency": "Cities of London and Westminster", "lat": 51.514524, "lng": -0.131914}, {"locationId": "RYX16", "locationName": "South Westminster Centre for Health", "postalCode": "SW1P 2PF", "nhs_ha": "London", "primary_care_trust": "Westminster", "parliamentary_constituency": "Cities of London and Westminster", "lat": 51.49428, "lng": -0.134039}, {"locationId": "RYX17", "locationName": "Violet Melchett Clinic", "postalCode": "SW3 5RR", "nhs_ha": "London", "primary_care_trust": "Kensington and Chelsea", "parliamentary_constituency": "Chelsea and Fulham", "lat": 51.486814, "lng": -0.166915}, {"locationId": "RYX27", "locationName": "Princess Louise Nursing Home", "postalCode": "W10 6DH", "nhs_ha": "London", "primary_care_trust": "Kensington and Chelsea", "parliamentary_constituency": "Kensington", "lat": 51.521449, "lng": -0.222227}, {"locationId": "RYX33", "locationName": "Garside House Nursing Home", "postalCode": "SW1P 4AH", "nhs_ha": "London", "primary_care_trust": "Westminster", "parliamentary_constituency": "Cities of London and Westminster", "lat": 51.490435, "lng": -0.132049}, {"locationId": "RYXV1", "locationName": "Langley House Inpatient Unit", "postalCode": "WD25 9FG", "nhs_ha": "East of England", "primary_care_trust": "Hertfordshire", "parliamentary_constituency": "Watford", "lat": 51.683651, "lng": -0.391206}, {"locationId": "RYXV2", "locationName": "Potters Bar Community Hospital Inpatient Unit", "postalCode": "EN6 2RY", "nhs_ha": "East of England", "primary_care_trust": "Hertfordshire", "parliamentary_constituency": "Hertsmere", "lat": 51.687184, "lng": -0.177519}, {"locationId": "RYXV3", "locationName": "St Peter'sWard, Hemel Hempstead Hospital", "postalCode": "HP2 4AD", "nhs_ha": "East of England", "primary_care_trust": "Hertfordshire", "parliamentary_constituency": "Hemel Hempstead", "lat": 51.750846, "lng": -0.468578}, {"locationId": "RYXW1", "locationName": "Community Independence Service - Westminster", "postalCode": "NW8 8EA", "nhs_ha": "London", "primary_care_trust": "Westminster", "parliamentary_constituency": "Westminster North", "lat": 51.525868, "lng": -0.172583}, {"locationId": "RYXW2", "locationName": "Alexandra Rehabilitation Unit", "postalCode": "W10 6DH", "nhs_ha": "London", "primary_care_trust": "Kensington and Chelsea", "parliamentary_constituency": "Kensington", "lat": 51.521449, "lng": -0.222227}, {"locationId": "RYXW3", "locationName": "Heathland Court Care Home", "postalCode": "SW19 5NJ", "nhs_ha": "London", "primary_care_trust": "Sutton and Merton", "parliamentary_constituency": "Wimbledon", "lat": 51.437407, "lng": -0.224115}, {"locationId": "RYXW5", "locationName": "Emergency/Out of Hours Dental Services", "postalCode": "W10 6DZ", "nhs_ha": "London", "primary_care_trust": "Kensington and Chelsea", "parliamentary_constituency": "Kensington", "lat": 51.522362, "lng": -0.217218}, {"locationId": "RYXW6", "locationName": "Hammersmith & Fulham Learning Disabilities Team", "postalCode": "W12 7FG", "nhs_ha": "London", "primary_care_trust": "Hammersmith and Fulham", "parliamentary_constituency": "Hammersmith", "lat": 51.510845, "lng": -0.23522}, {"locationId": "RYXW7", "locationName": "Marjory Warren Ward", "postalCode": "W6 8RF", "nhs_ha": "London", "primary_care_trust": "Hammersmith and Fulham", "parliamentary_constituency": "Hammersmith", "lat": 51.487045, "lng": -0.219935}, {"locationId": "RYXX2", "locationName": "Hammersmith Centre for Health", "postalCode": "W12 0HS", "nhs_ha": "London", "primary_care_trust": "Hammersmith and Fulham", "parliamentary_constituency": "Hammersmith", "lat": 51.51742, "lng": -0.234721}, {"locationId": "RYXX3", "locationName": "Parsons Green Walk-in Centre", "postalCode": "SW6 4UL", "nhs_ha": "London", "primary_care_trust": "Hammersmith and Fulham", "parliamentary_constituency": "Chelsea and Fulham", "lat": 51.47377, "lng": -0.199155}, {"locationId": "RYXX4", "locationName": "Central London Community Healthcare NHS Trust Headquarters", "postalCode": "NW1 5JD", "nhs_ha": "London", "primary_care_trust": "Westminster", "parliamentary_constituency": "Cities of London and Westminster", "lat": 51.522838, "lng": -0.151539}, {"locationId": "RYXX6", "locationName": "HMP Wormwood Scrubs", "postalCode": "W12 0AE", "nhs_ha": "London", "primary_care_trust": "Hammersmith and Fulham", "parliamentary_constituency": "Hammersmith", "lat": 51.517632, "lng": -0.240435}, {"locationId": "RYXX7", "locationName": "Milne House Medical Centre", "postalCode": "W2 1RU", "nhs_ha": "London", "primary_care_trust": "Westminster", "parliamentary_constituency": "Cities of London and Westminster", "lat": 51.5154, "lng": -0.173694}, {"locationId": "RYXX8", "locationName": "Fulham Centre for Health", "postalCode": "W6 8RF", "nhs_ha": "London", "primary_care_trust": "Hammersmith and Fulham", "parliamentary_constituency": "Hammersmith", "lat": 51.487045, "lng": -0.219935}, {"locationId": "RYXX9", "locationName": "Athlone House Rehabilitation Unit", "postalCode": "W9 2BA", "nhs_ha": "London", "primary_care_trust": "Westminster", "parliamentary_constituency": "Westminster North", "lat": 51.522829, "lng": -0.200075}, {"locationId": "RYXY1", "locationName": "Edgware Community Hospital Walk-In Centre", "postalCode": "HA8 0AD", "nhs_ha": "London", "primary_care_trust": "Barnet", "parliamentary_constituency": "Hendon", "lat": 51.606493, "lng": -0.271242}, {"locationId": "RYXY2", "locationName": "Pembridge Hospice", "postalCode": "W10 6DZ", "nhs_ha": "London", "primary_care_trust": "Kensington and Chelsea", "parliamentary_constituency": "Kensington", "lat": 51.522362, "lng": -0.217218}, {"locationId": "RYXY3", "locationName": "Alison House Short Breaks Service", "postalCode": "W9 3HL", "nhs_ha": "London", "primary_care_trust": "Westminster", "parliamentary_constituency": "Westminster North", "lat": 51.529774, "lng": -0.20032}, {"locationId": "RYXY4", "locationName": "Athlone House Nursing Home", "postalCode": "W9 2BA", "nhs_ha": "London", "primary_care_trust": "Westminster", "parliamentary_constituency": "Westminster North", "lat": 51.522829, "lng": -0.200075}, {"locationId": "RYXY5", "locationName": "Community Independence Service - Hammersmith and Fulham", "postalCode": "W6 9JU", "nhs_ha": "London", "primary_care_trust": "Hammersmith and Fulham", "parliamentary_constituency": "Hammersmith", "lat": 51.491514, "lng": -0.234114}, {"locationId": "RYXY6", "locationName": "Learning Disability Flats", "postalCode": "W10 6PU", "nhs_ha": "London", "primary_care_trust": "Kensington and Chelsea", "parliamentary_constituency": "Kensington", "lat": 51.518516, "lng": -0.222125}, {"locationId": "RYXY7", "locationName": "Community Independence Service - Kensington and Chelsea", "postalCode": "W8 7NX", "nhs_ha": "London", "primary_care_trust": "Kensington and Chelsea", "parliamentary_constituency": "Kensington", "lat": 51.502387, "lng": -0.19529}, {"locationId": "RYXY8", "locationName": "Central London Community Health Services - HQ", "postalCode": "SW1E 6QP", "nhs_ha": "London", "primary_care_trust": "Westminster", "parliamentary_constituency": "Cities of London and Westminster", "lat": 51.497552, "lng": -0.137377}, {"locationId": "RYXY9", "locationName": "Edgware Community Hospital Intermediate Care Wards", "postalCode": "HA8 0AD", "nhs_ha": "London", "primary_care_trust": "Barnet", "parliamentary_constituency": "Hendon", "lat": 51.606493, "lng": -0.271242}, {"locationId": "RYXZ1", "locationName": "Finchley Memorial  Hospital Walk-In Centre", "postalCode": "N12 0JE", "nhs_ha": "London", "primary_care_trust": "Barnet", "parliamentary_constituency": "Finchley and Golders Green", "lat": 51.60546, "lng": -0.176595}, {"locationId": "RYXZ2", "locationName": "Finchley Memorial Hospital Intermediate Care Ward", "postalCode": "N12 0JE", "nhs_ha": "London", "primary_care_trust": "Barnet", "parliamentary_constituency": "Finchley and Golders Green", "lat": 51.60546, "lng": -0.176595}, {"locationId": "RYXZ3", "locationName": "Barnet Learning Disabilities Service", "postalCode": "N12 8LY", "nhs_ha": "London", "primary_care_trust": "Barnet", "parliamentary_constituency": "Finchley and Golders Green", "lat": 51.612851, "lng": -0.177913}, {"locationId": "RYXZ4", "locationName": "Barnet Learning Disabilities Services", "postalCode": "EN5 2ED", "nhs_ha": "London", "primary_care_trust": "Barnet", "parliamentary_constituency": "Chipping Barnet", "lat": 51.648828, "lng": -0.194727}, {"locationId": "RYXZ5", "locationName": "Ravenscourt Ward - 7 West", "postalCode": "W6 8RF", "nhs_ha": "London", "primary_care_trust": "Hammersmith and Fulham", "parliamentary_constituency": "Hammersmith", "lat": 51.487045, "lng": -0.219935}, {"locationId": "RYXZ6", "locationName": "Barnet Learning Disability Service", "postalCode": "N11 1NP", "nhs_ha": "London", "primary_care_trust": "Barnet", "parliamentary_constituency": "Chipping Barnet", "lat": 51.625413, "lng": -0.153152}, {"locationId": "RYXZ7", "locationName": "Hammersmith & Fulham Learning Disabilities Team", "postalCode": "W6 0YD", "nhs_ha": "London", "primary_care_trust": "Hounslow", "parliamentary_constituency": "Brentford and Isleworth", "lat": 51.497636, "lng": -0.24547}, {"locationId": "RYXZ8", "locationName": "Westminster Learning Disabilities Partnership", "postalCode": "NW8 8LF", "nhs_ha": "London", "primary_care_trust": "Westminster", "parliamentary_constituency": "Westminster North", "lat": 51.526264, "lng": -0.172203}, {"locationId": "RYXZ9", "locationName": "Kensington and Chelsea Learning Disabilities Team", "postalCode": "W11 1RG", "nhs_ha": "London", "primary_care_trust": "Kensington and Chelsea", "parliamentary_constituency": "Kensington", "lat": 51.5146, "lng": -0.210603}, {"locationId": "RYY13", "locationName": "Trust HQ, Trinity House", "postalCode": "TN25 4AZ", "nhs_ha": "South East Coast", "primary_care_trust": "Eastern and Coastal Kent", "parliamentary_constituency": "Ashford", "lat": 51.17193, "lng": 0.870643}, {"locationId": "RYY19", "locationName": "Dover Medical Practice and Dental Department", "postalCode": "CT16 1RH", "nhs_ha": "South East Coast", "primary_care_trust": "Eastern and Coastal Kent", "parliamentary_constituency": "Dover", "lat": 51.129188, "lng": 1.311347}, {"locationId": "RYY26", "locationName": "Dental Department HMP Swaleside", "postalCode": "ME12 4AX", "nhs_ha": "South East Coast", "primary_care_trust": "Eastern and Coastal Kent", "parliamentary_constituency": "Sittingbourne and Sheppey", "lat": 51.393814, "lng": 0.855002}, {"locationId": "RYYA6", "locationName": "The Broadway Practice and Dental Department", "postalCode": "CT10 2AJ", "nhs_ha": "South East Coast", "primary_care_trust": "Eastern and Coastal Kent", "parliamentary_constituency": "South Thanet", "lat": 51.360634, "lng": 1.433055}, {"locationId": "RYYAD", "locationName": "Dental Department, College Road Clinic", "postalCode": "CT9 2RT", "nhs_ha": "South East Coast", "primary_care_trust": "Eastern and Coastal Kent", "parliamentary_constituency": "North Thanet", "lat": 51.380046, "lng": 1.389834}, {"locationId": "RYYAL", "locationName": "Faversham Cottage Hospital", "postalCode": "ME13 8PS", "nhs_ha": "South East Coast", "primary_care_trust": "Eastern and Coastal Kent", "parliamentary_constituency": "Faversham and Mid Kent", "lat": 51.314553, "lng": 0.887822}, {"locationId": "RYYAP", "locationName": "Dental Department, Folkestone Health Centre", "postalCode": "CT20 1JY", "nhs_ha": "South East Coast", "primary_care_trust": "Eastern and Coastal Kent", "parliamentary_constituency": "Folkestone and Hythe", "lat": 51.082581, "lng": 1.181372}, {"locationId": "RYYAX", "locationName": "Ramsgate NHS Dental Access Centre", "postalCode": "CT11 0QU", "nhs_ha": "South East Coast", "primary_care_trust": "Eastern and Coastal Kent", "parliamentary_constituency": "South Thanet", "lat": 51.338514, "lng": 1.402879}, {"locationId": "RYYC3", "locationName": "Queen Victoria Memorial Hospital including Dental Department", "postalCode": "CT6 6EB", "nhs_ha": "South East Coast", "primary_care_trust": "Eastern and Coastal Kent", "parliamentary_constituency": "North Thanet", "lat": 51.367885, "lng": 1.142881}, {"locationId": "RYYC4", "locationName": "Learning Disability Residential Unit", "postalCode": "CT13 0JU", "nhs_ha": "South East Coast", "primary_care_trust": "Eastern and Coastal Kent", "parliamentary_constituency": "Dover", "lat": 51.24345, "lng": 1.303846}, {"locationId": "RYYC7", "locationName": "Sheppey Minor Injuries Unit", "postalCode": "ME12 3LT", "nhs_ha": "South East Coast", "primary_care_trust": "Eastern and Coastal Kent", "parliamentary_constituency": "Sittingbourne and Sheppey", "lat": 51.415409, "lng": 0.793061}, {"locationId": "RYYC8", "locationName": "Sittingbourne Minor Injuries Unit", "postalCode": "ME10 4DT", "nhs_ha": "South East Coast", "primary_care_trust": "Eastern and Coastal Kent", "parliamentary_constituency": "Sittingbourne and Sheppey", "lat": 51.334602, "lng": 0.736543}, {"locationId": "RYYCG", "locationName": "Ashford NHS Dental Access Centre", "postalCode": "TN23 1NJ", "nhs_ha": "South East Coast", "primary_care_trust": "Eastern and Coastal Kent", "parliamentary_constituency": "Ashford", "lat": 51.147915, "lng": 0.873959}, {"locationId": "RYYCH", "locationName": "Victoria Hospital and Urgent Treatment Centre", "postalCode": "CT14 9UA", "nhs_ha": "South East Coast", "primary_care_trust": "Eastern and Coastal Kent", "parliamentary_constituency": "Dover", "lat": 51.219393, "lng": 1.389482}, {"locationId": "RYYCJ", "locationName": "West View Rehabilitation Unit", "postalCode": "TN30 6TX", "nhs_ha": "South East Coast", "primary_care_trust": "Eastern and Coastal Kent", "parliamentary_constituency": "Ashford", "lat": 51.064487, "lng": 0.674914}, {"locationId": "RYYCM", "locationName": "Whitstable and Tankerton Hospital", "postalCode": "CT5 2HN", "nhs_ha": "South East Coast", "primary_care_trust": "Eastern and Coastal Kent", "parliamentary_constituency": "Canterbury", "lat": 51.361364, "lng": 1.050053}, {"locationId": "RYYCV", "locationName": "Iwade Health Centre", "postalCode": "ME9 8TY", "nhs_ha": "South East Coast", "primary_care_trust": "Eastern and Coastal Kent", "parliamentary_constituency": "Sittingbourne and Sheppey", "lat": 51.373196, "lng": 0.727995}, {"locationId": "RYYCW", "locationName": "Folkestone Urgent Treatment Centre", "postalCode": "CT19 5BN", "nhs_ha": "South East Coast", "primary_care_trust": "Eastern and Coastal Kent", "parliamentary_constituency": "Folkestone and Hythe", "lat": 51.085996, "lng": 1.171894}, {"locationId": "RYYD1", "locationName": "Allen House Surgery", "postalCode": "CT14 6HL", "nhs_ha": "South East Coast", "primary_care_trust": "Eastern and Coastal Kent", "parliamentary_constituency": "Dover", "lat": 51.225941, "lng": 1.403444}, {"locationId": "RYYD4", "locationName": "Edenbridge and District War Memorial Hospital and Minor Injuries Unit", "postalCode": "TN8 5DA", "nhs_ha": "South East Coast", "primary_care_trust": "West Kent", "parliamentary_constituency": "Tonbridge and Malling", "lat": 51.190348, "lng": 0.066664}, {"locationId": "RYYD8", "locationName": "Livingstone Hospital", "postalCode": "DA1 1SA", "nhs_ha": "South East Coast", "primary_care_trust": "West Kent", "parliamentary_constituency": "Dartford", "lat": 51.442226, "lng": 0.226798}, {"locationId": "RYYD9", "locationName": "Sevenoaks Hospital and Minor Injuries Unit", "postalCode": "TN13 3PG", "nhs_ha": "South East Coast", "primary_care_trust": "West Kent", "parliamentary_constituency": "Sevenoaks", "lat": 51.288266, "lng": 0.19473}, {"locationId": "RYYDC", "locationName": "Tonbridge Cottage Hospital", "postalCode": "TN11 0NE", "nhs_ha": "South East Coast", "primary_care_trust": "West Kent", "parliamentary_constituency": "Tonbridge and Malling", "lat": 51.178069, "lng": 0.273465}, {"locationId": "RYYDN", "locationName": "Gravesham Minor Injuries Unit", "postalCode": "DA11 0DG", "nhs_ha": "South East Coast", "primary_care_trust": "West Kent", "parliamentary_constituency": "Gravesham", "lat": 51.443183, "lng": 0.365644}, {"locationId": "RYYE3", "locationName": "Trust Head Quarters", "postalCode": "ME16 9NT", "nhs_ha": "South East Coast", "primary_care_trust": "West Kent", "parliamentary_constituency": "Chatham and Aylesford", "lat": 51.278405, "lng": 0.478723}, {"locationId": "RYYE5", "locationName": "The Rainbow Centre", "postalCode": "TN23 4ER", "nhs_ha": "South East Coast", "primary_care_trust": "Eastern and Coastal Kent", "parliamentary_constituency": "Ashford", "lat": 51.145859, "lng": 0.844015}, {"locationId": "RYYK4", "locationName": "Hawkhurst Community Hospital", "postalCode": "TN18 4PU", "nhs_ha": "South East Coast", "primary_care_trust": "West Kent", "parliamentary_constituency": "Tunbridge Wells", "lat": 51.048845, "lng": 0.489017}, {"locationId": "RYYMF", "locationName": "Paediatric and Special Care Community Dental Service Five Elms Health Centre", "postalCode": "RM9 5TT", "nhs_ha": "London", "primary_care_trust": "Barking and Dagenham", "parliamentary_constituency": "Dagenham and Rainham", "lat": 51.553315, "lng": 0.14235}, {"locationId": "RYYMG", "locationName": "Paediatric and Special Care Community Dental Service Loxford Polyclinic", "postalCode": "IG1 2SN", "nhs_ha": "London", "primary_care_trust": "Redbridge", "parliamentary_constituency": "Ilford South", "lat": 51.546445, "lng": 0.076835}, {"locationId": "RYYMH", "locationName": "Paediatric and Special Care Community Dental Service Langthorne  Health Centre", "postalCode": "E11 4HX", "nhs_ha": "London", "primary_care_trust": "Waltham Forest", "parliamentary_constituency": "Leyton and Wanstead", "lat": 51.555415, "lng": 0.0021}, {"locationId": "RYYMK", "locationName": "Paediatric and Special Care Community Dental Service St Leonards Hospital", "postalCode": "N1 5LZ", "nhs_ha": "London", "primary_care_trust": "City and Hackney Teaching", "parliamentary_constituency": "Hackney South and Shoreditch", "lat": 51.533919, "lng": -0.077786}, {"locationId": "RYYML", "locationName": "Paediatric and Special Care Community Dental Service Barkantine Health Centre", "postalCode": "E14 8JH", "nhs_ha": "London", "primary_care_trust": "Tower Hamlets", "parliamentary_constituency": "Poplar and Limehouse", "lat": 51.500806, "lng": -0.025725}, {"locationId": "RYYMP", "locationName": "Paediatric and Special Care Community Dental Service South Hornchurch Health Centre", "postalCode": "RM13 7XJ", "nhs_ha": "London", "primary_care_trust": "Havering", "parliamentary_constituency": "Dagenham and Rainham", "lat": 51.531228, "lng": 0.191171}, {"locationId": "RYYMQ", "locationName": "Paediatric and Special Care Community Dental Service Hainault Health Centre", "postalCode": "IG7 4DF", "nhs_ha": "London", "primary_care_trust": "Redbridge", "parliamentary_constituency": "Ilford North", "lat": 51.60776, "lng": 0.104416}, {"locationId": "RYYMR", "locationName": "Paediatric and Special Care Community Dental Service Vicarage Fields Health Centre", "postalCode": "IG11 7NR", "nhs_ha": "London", "primary_care_trust": "Barking and Dagenham", "parliamentary_constituency": "Barking", "lat": 51.53735, "lng": 0.081555}, {"locationId": "RYYW1", "locationName": "Dental Service - Harmondsworth Immigration Removal Centre", "postalCode": "UB7 0HB", "nhs_ha": "London", "primary_care_trust": "Hillingdon", "parliamentary_constituency": "Hayes and Harlington", "lat": 51.483089, "lng": -0.483548}, {"locationId": "RYYW2", "locationName": "Dental Service - Colnbrook Immigration and Detention Centre", "postalCode": "UB7 0FX", "nhs_ha": "London", "primary_care_trust": "Hillingdon", "parliamentary_constituency": "Hayes and Harlington", "lat": 51.483613, "lng": -0.483084}, {"locationId": "RYYX1", "locationName": "St Stephens Health Centre", "postalCode": "TN23 5AQ", "nhs_ha": "South East Coast", "primary_care_trust": "Eastern and Coastal Kent", "parliamentary_constituency": "Ashford", "lat": 51.133617, "lng": 0.856929}, {"locationId": "RYYX2", "locationName": "Aylesham Community Dental Department", "postalCode": "CT3 1BB", "nhs_ha": "South East Coast", "primary_care_trust": "Eastern and Coastal Kent", "parliamentary_constituency": "South Thanet", "lat": 51.271622, "lng": 1.213464}, {"locationId": "RYYX3", "locationName": "Dental Department, Canterbury Health Centre", "postalCode": "CT1 3JH", "nhs_ha": "South East Coast", "primary_care_trust": "Eastern and Coastal Kent", "parliamentary_constituency": "Canterbury", "lat": 51.274249, "lng": 1.082981}, {"locationId": "RYYX4", "locationName": "Dental Department, HMP and YOI Holloway", "postalCode": "N7 0NU", "nhs_ha": "Not Found", "primary_care_trust": "Not Found", "parliamentary_constituency": "Not Found", "lat": 0, "lng": 0}, {"locationId": "RYYX5", "locationName": "Appleby Community Dental Department", "postalCode": "E16 1LG", "nhs_ha": "London", "primary_care_trust": "Newham", "parliamentary_constituency": "West Ham", "lat": 51.509722, "lng": 0.01788}, {"locationId": "RYYX6", "locationName": "Shrewsbury Community Dental Department", "postalCode": "E7 8QP", "nhs_ha": "London", "primary_care_trust": "Newham", "parliamentary_constituency": "East Ham", "lat": 51.540929, "lng": 0.043312}, {"locationId": "RYYX7", "locationName": "Dental Department, Deal and Walmer Health Clinic", "postalCode": "CT14 9UF", "nhs_ha": "South East Coast", "primary_care_trust": "Eastern and Coastal Kent", "parliamentary_constituency": "Dover", "lat": 51.219625, "lng": 1.388597}, {"locationId": "RYYX8", "locationName": "Faversham Dental Access Centre, Faversham Health Centre", "postalCode": "ME13 8QR", "nhs_ha": "South East Coast", "primary_care_trust": "Eastern and Coastal Kent", "parliamentary_constituency": "Faversham and Mid Kent", "lat": 51.314577, "lng": 0.889044}, {"locationId": "RYYX9", "locationName": "New Romney NHS Dental Access Centre, New Romney Clinic", "postalCode": "TN28 8LZ", "nhs_ha": "South East Coast", "primary_care_trust": "Eastern and Coastal Kent", "parliamentary_constituency": "Folkestone and Hythe", "lat": 50.979703, "lng": 0.96691}, {"locationId": "RYYXD", "locationName": "Dental Department HMP Maidstone", "postalCode": "ME14 1UZ", "nhs_ha": "South East Coast", "primary_care_trust": "West Kent", "parliamentary_constituency": "Maidstone and The Weald", "lat": 51.278266, "lng": 0.524761}, {"locationId": "RYYY1", "locationName": "Dover Immigration Removal Centre", "postalCode": "CT17 9DR", "nhs_ha": "Not Found", "primary_care_trust": "Not Found", "parliamentary_constituency": "Not Found", "lat": 0, "lng": 0}, {"locationId": "RYYY4", "locationName": "Dental Department, HMP Sheppey Cluster - Standford", "postalCode": "ME12 4DZ", "nhs_ha": "South East Coast", "primary_care_trust": "Eastern and Coastal Kent", "parliamentary_constituency": "Sittingbourne and Sheppey", "lat": 51.387829, "lng": 0.850894}, {"locationId": "RYYY5", "locationName": "Lamberhurst Surgery", "postalCode": "TN3 8ES", "nhs_ha": "South East Coast", "primary_care_trust": "West Kent", "parliamentary_constituency": "Tunbridge Wells", "lat": 51.096093, "lng": 0.388017}, {"locationId": "RYYY8", "locationName": "Garlinge Surgery", "postalCode": "CT9 5DB", "nhs_ha": "South East Coast", "primary_care_trust": "Eastern and Coastal Kent", "parliamentary_constituency": "North Thanet", "lat": 51.38071, "lng": 1.356477}, {"locationId": "RYYZ3", "locationName": "Staplehurst Health Centre", "postalCode": "TN12 0LB", "nhs_ha": "South East Coast", "primary_care_trust": "West Kent", "parliamentary_constituency": "Maidstone and The Weald", "lat": 51.160737, "lng": 0.550404}, {"locationId": "RYYZ4", "locationName": "Golf Road Surgery", "postalCode": "CT14 6PY", "nhs_ha": "South East Coast", "primary_care_trust": "Eastern and Coastal Kent", "parliamentary_constituency": "Dover", "lat": 51.229964, "lng": 1.399342}, {"locationId": "RYYZ7", "locationName": "Community Dental Department Greenbanks", "postalCode": "CT9 5PA", "nhs_ha": "South East Coast", "primary_care_trust": "Eastern and Coastal Kent", "parliamentary_constituency": "North Thanet", "lat": 51.378877, "lng": 1.363012}, {"locationId": "RYYZ8", "locationName": "Ramsgate Dental Services GDS", "postalCode": "CT11 7DS", "nhs_ha": "South East Coast", "primary_care_trust": "Eastern and Coastal Kent", "parliamentary_constituency": "South Thanet", "lat": 51.339673, "lng": 1.425455}, {"locationId": "RYYZ9", "locationName": "Sandwich Dental Service", "postalCode": "CT13 9BB", "nhs_ha": "South East Coast", "primary_care_trust": "Eastern and Coastal Kent", "parliamentary_constituency": "South Thanet", "lat": 51.273296, "lng": 1.340578}, {"locationId": "T1318", "locationName": "Health Protection Agency - Colindale", "postalCode": "NW9 5EQ", "nhs_ha": "London", "primary_care_trust": "Barnet", "parliamentary_constituency": "Hendon", "lat": 51.594927, "lng": -0.254674}, {"locationId": "T1319", "locationName": "Health Protection Agency - Porton", "postalCode": "SP4 0JG", "nhs_ha": "South West", "primary_care_trust": "Wiltshire", "parliamentary_constituency": "Salisbury", "lat": 51.135111, "lng": -1.700254}, {"locationId": "T131V", "locationName": "Health Protection Agency - National Institute for Biological Standards and Control", "postalCode": "EN6 3QG", "nhs_ha": "East of England", "primary_care_trust": "Hertfordshire", "parliamentary_constituency": "Hertsmere", "lat": 51.688383, "lng": -0.240853}, {"locationId": "T131W", "locationName": "Health Protection Agency - Centre for Radiation and Chemical and Environmental Hazards", "postalCode": "OX11 0RQ", "nhs_ha": "South Central", "primary_care_trust": "Oxfordshire", "parliamentary_constituency": "Wantage", "lat": 51.575483, "lng": -1.318073}, {"locationId": "T131X", "locationName": "Health Protection Agency - Health Protection Services Division", "postalCode": "SW1W 9SZ", "nhs_ha": "London", "primary_care_trust": "Westminster", "parliamentary_constituency": "Cities of London and Westminster", "lat": 51.493102, "lng": -0.146519}, {"locationId": "T131Y", "locationName": "Health Protection Agency", "postalCode": "SW1W 9SZ", "nhs_ha": "London", "primary_care_trust": "Westminster", "parliamentary_constituency": "Cities of London and Westminster", "lat": 51.493102, "lng": -0.146519}, {"locationId": "T131Z", "locationName": "Health Protection Agency - Heathrow Health Control Unit", "postalCode": "TW6 1NB", "nhs_ha": "London", "primary_care_trust": "Hillingdon", "parliamentary_constituency": "Hayes and Harlington", "lat": 51.471906, "lng": -0.458347}, {"locationId": "T1460W1", "locationName": "Nottingham Donor Centre", "postalCode": "NG1 4BH", "nhs_ha": "Not Found", "primary_care_trust": "Not Found", "parliamentary_constituency": "Not Found", "lat": 0, "lng": 0}, {"locationId": "T1460W2", "locationName": "Gloucester Donor Centre", "postalCode": "GL1 3HF", "nhs_ha": "South West", "primary_care_trust": "Gloucestershire", "parliamentary_constituency": "Gloucester", "lat": 51.868069, "lng": -2.236569}, {"locationId": "T1460W3", "locationName": "Luton Donor Centre", "postalCode": "LU1 2NF", "nhs_ha": "East of England", "primary_care_trust": "Luton", "parliamentary_constituency": "Luton South", "lat": 51.88124, "lng": -0.417187}, {"locationId": "T1460W4", "locationName": "Sheffield Donor Centre", "postalCode": "S1 2GN", "nhs_ha": "Yorkshire and the Humber", "primary_care_trust": "Sheffield", "parliamentary_constituency": "Sheffield Central", "lat": 53.382607, "lng": -1.4707}, {"locationId": "T1460W5", "locationName": "Edgware Donor Centre", "postalCode": "HA8 0AD", "nhs_ha": "London", "primary_care_trust": "Barnet", "parliamentary_constituency": "Hendon", "lat": 51.606493, "lng": -0.271242}, {"locationId": "T1460W6", "locationName": "Bristol Donor Centre", "postalCode": "BS10 5LX", "nhs_ha": "South West", "primary_care_trust": "Bristol", "parliamentary_constituency": "Bristol North West", "lat": 51.499021, "lng": -2.593431}, {"locationId": "T1460W8", "locationName": "Poole Donor Centre", "postalCode": "BH15 1SX", "nhs_ha": "South West", "primary_care_trust": "Bournemouth and Poole Teaching", "parliamentary_constituency": "Poole", "lat": 50.718985, "lng": -1.98098}, {"locationId": "T1460W9", "locationName": "Stoke Donor Centre", "postalCode": "ST1 4BT", "nhs_ha": "West Midlands", "primary_care_trust": "Stoke on Trent", "parliamentary_constituency": "Stoke-on-Trent Central", "lat": 53.021108, "lng": -2.194355}, {"locationId": "T1460X1", "locationName": "Therapeutic Apheresis Unit - Bristol", "postalCode": "BS10 5LX", "nhs_ha": "South West", "primary_care_trust": "Bristol", "parliamentary_constituency": "Bristol North West", "lat": 51.499021, "lng": -2.593431}, {"locationId": "T1460X2", "locationName": "Therapeutic Apheresis Unit - Liverpool", "postalCode": "L7 8XP", "nhs_ha": "North West", "primary_care_trust": "Liverpool", "parliamentary_constituency": "Liverpool, Riverside", "lat": 53.409506, "lng": -2.964809}, {"locationId": "T1460X3", "locationName": "Therapeutic Apheresis Unit - Sheffield", "postalCode": "S10 2JF", "nhs_ha": "Yorkshire and the Humber", "primary_care_trust": "Sheffield", "parliamentary_constituency": "Sheffield Central", "lat": 53.378355, "lng": -1.493331}, {"locationId": "T1460X4", "locationName": "Therapeutic Apheresis Unit - Leeds", "postalCode": "LS9 7TF", "nhs_ha": "Yorkshire and the Humber", "primary_care_trust": "Leeds", "parliamentary_constituency": "Leeds East", "lat": 53.806869, "lng": -1.520359}, {"locationId": "T1460X5", "locationName": "Photopheresis Unit", "postalCode": "M20 4BX", "nhs_ha": "North West", "primary_care_trust": "Manchester Teaching", "parliamentary_constituency": "Manchester, Withington", "lat": 53.429767, "lng": -2.230125}, {"locationId": "T1460X6", "locationName": "Therapeutic Apheresis Unit - Horfield Road Bristol", "postalCode": "BS2 8ED", "nhs_ha": "South West", "primary_care_trust": "Bristol", "parliamentary_constituency": "Bristol West", "lat": 51.458268, "lng": -2.597623}, {"locationId": "T1460X7", "locationName": "West End Donor Centre", "postalCode": "W1W 8NB", "nhs_ha": "London", "primary_care_trust": "Westminster", "parliamentary_constituency": "Cities of London and Westminster", "lat": 51.51673, "lng": -0.141755}, {"locationId": "T1460X8", "locationName": "Manchester (Norfolk House) Donor Centre", "postalCode": "M2 1DW", "nhs_ha": "North West", "primary_care_trust": "Manchester Teaching", "parliamentary_constituency": "Manchester Central", "lat": 53.482144, "lng": -2.242431}, {"locationId": "T1460X9", "locationName": "Liverpool Donor Centre", "postalCode": "L2 2BS", "nhs_ha": "North West", "primary_care_trust": "Liverpool", "parliamentary_constituency": "Liverpool, Riverside", "lat": 53.408295, "lng": -2.988655}, {"locationId": "T1460Y1", "locationName": "Leeds City Donor Centre", "postalCode": "LS1 5JX", "nhs_ha": "Not Found", "primary_care_trust": "Not Found", "parliamentary_constituency": "Not Found", "lat": 0, "lng": 0}, {"locationId": "T1460Y2", "locationName": "Nottingham Donor Centre", "postalCode": "NG7 1FW", "nhs_ha": "East Midlands", "primary_care_trust": "Nottingham City", "parliamentary_constituency": "Nottingham South", "lat": 52.947393, "lng": -1.158175}, {"locationId": "T1460Y3", "locationName": "Leicester Donor Centre", "postalCode": "LE1 4SH", "nhs_ha": "East Midlands", "primary_care_trust": "Leicester City", "parliamentary_constituency": "Leicester South", "lat": 52.638521, "lng": -1.136927}, {"locationId": "T1460Y4", "locationName": "Bradford Donor Centre", "postalCode": "BD1 3SH", "nhs_ha": "Yorkshire and the Humber", "primary_care_trust": "Bradford and Airedale Teaching", "parliamentary_constituency": "Bradford West", "lat": 53.796698, "lng": -1.757381}, {"locationId": "T1460Y5", "locationName": "Colindale Blood Centre", "postalCode": "NW9 5BG", "nhs_ha": "London", "primary_care_trust": "Barnet", "parliamentary_constituency": "Hendon", "lat": 51.595869, "lng": -0.256114}, {"locationId": "T1460Y6", "locationName": "Birmingham Donor Centre", "postalCode": "B2 4DU", "nhs_ha": "West Midlands", "primary_care_trust": "Heart of Birmingham Teaching", "parliamentary_constituency": "Birmingham, Ladywood", "lat": 52.479612, "lng": -1.901256}, {"locationId": "T1460Y8", "locationName": "Horsham Donor Centre", "postalCode": "RH13 5QR", "nhs_ha": "South East Coast", "primary_care_trust": "West Sussex", "parliamentary_constituency": "Horsham", "lat": 51.069449, "lng": -0.308328}, {"locationId": "T1460Y9", "locationName": "Bradford Donor Centre", "postalCode": "BD1 4QU", "nhs_ha": "Yorkshire and the Humber", "primary_care_trust": "Bradford and Airedale Teaching", "parliamentary_constituency": "Bradford West", "lat": 53.797295, "lng": -1.754918}, {"locationId": "T1460Z1", "locationName": "Leicester Donor Centre", "postalCode": "LE1 5FQ", "nhs_ha": "East Midlands", "primary_care_trust": "Leicester City", "parliamentary_constituency": "Leicester South", "lat": 52.635008, "lng": -1.137247}, {"locationId": "T1460Z2", "locationName": "Oxford Therapeutic Apheresis Unit", "postalCode": "OX3 9BQ", "nhs_ha": "South Central", "primary_care_trust": "Oxfordshire", "parliamentary_constituency": "Oxford East", "lat": 51.763871, "lng": -1.219806}, {"locationId": "T1462", "locationName": "Filton Blood Centre", "postalCode": "BS34 7QH", "nhs_ha": "South West", "primary_care_trust": "South Gloucestershire", "parliamentary_constituency": "Filton and Bradley Stoke", "lat": 51.517854, "lng": -2.568888}, {"locationId": "T146C", "locationName": "Leeds Blood Centre", "postalCode": "LS15 7TW", "nhs_ha": "Yorkshire and the Humber", "primary_care_trust": "Leeds", "parliamentary_constituency": "Leeds East", "lat": 53.806303, "lng": -1.464925}, {"locationId": "T146D", "locationName": "Sheffield Blood Centre", "postalCode": "S5 7JN", "nhs_ha": "Yorkshire and the Humber", "primary_care_trust": "Sheffield", "parliamentary_constituency": "Sheffield, Brightside and Hillsborough", "lat": 53.412458, "lng": -1.462461}, {"locationId": "T146E", "locationName": "Cambridge Donor Centre", "postalCode": "CB2 0PT", "nhs_ha": "East of England", "primary_care_trust": "Cambridgeshire", "parliamentary_constituency": "South Cambridgeshire", "lat": 52.177341, "lng": 0.140925}, {"locationId": "T146F", "locationName": "Oxford Donor Centre", "postalCode": "OX3 9BQ", "nhs_ha": "South Central", "primary_care_trust": "Oxfordshire", "parliamentary_constituency": "Oxford East", "lat": 51.763871, "lng": -1.219806}, {"locationId": "T146H", "locationName": "Newcastle Donor Centre", "postalCode": "NE2 4NQ", "nhs_ha": "North East", "primary_care_trust": "Newcastle", "parliamentary_constituency": "Newcastle upon Tyne Central", "lat": 54.980595, "lng": -1.632117}, {"locationId": "T146K", "locationName": "Tooting Donor Centre", "postalCode": "SW17 0RB", "nhs_ha": "London", "primary_care_trust": "Wandsworth", "parliamentary_constituency": "Tooting", "lat": 51.42754, "lng": -0.175972}, {"locationId": "T146L", "locationName": "Southampton Donor Centre", "postalCode": "SO16 5AF", "nhs_ha": "South Central", "primary_care_trust": "Southampton City", "parliamentary_constituency": "Southampton, Test", "lat": 50.933785, "lng": -1.437286}, {"locationId": "T146P", "locationName": "Birmingham Blood Centre", "postalCode": "B15 2SG", "nhs_ha": "West Midlands", "primary_care_trust": "South Birmingham", "parliamentary_constituency": "Birmingham, Edgbaston", "lat": 52.452935, "lng": -1.93488}, {"locationId": "T146Q", "locationName": "Liverpool Blood Centre", "postalCode": "L24 8RB", "nhs_ha": "North West", "primary_care_trust": "Liverpool", "parliamentary_constituency": "Garston and Halewood", "lat": 53.345613, "lng": -2.872577}, {"locationId": "T146R", "locationName": "Manchester (Plymouth Grove) Donor Centre", "postalCode": "M13 9LL", "nhs_ha": "North West", "primary_care_trust": "Manchester Teaching", "parliamentary_constituency": "Manchester Central", "lat": 53.463852, "lng": -2.224962}, {"locationId": "T146T", "locationName": "Lancaster Donor Centre", "postalCode": "LA1 4GT", "nhs_ha": "Not Found", "primary_care_trust": "Not Found", "parliamentary_constituency": "Not Found", "lat": 0, "lng": 0}, {"locationId": "T146V", "locationName": "Brentwood Blood Centre", "postalCode": "CM15 8DP", "nhs_ha": "East of England", "primary_care_trust": "South West Essex", "parliamentary_constituency": "Brentwood and Ongar", "lat": 51.623012, "lng": 0.318423}, {"locationId": "T146W", "locationName": "Plymouth Donor Centre", "postalCode": "PL6 8DH", "nhs_ha": "South West", "primary_care_trust": "Plymouth Teaching", "parliamentary_constituency": "Plymouth, Moor View", "lat": 50.41672, "lng": -4.113684}, {"locationId": "T146Y", "locationName": "NHS Blood and Transplant Headquarters", "postalCode": "BS34 7QH", "nhs_ha": "South West", "primary_care_trust": "South Gloucestershire", "parliamentary_constituency": "Filton and Bradley Stoke", "lat": 51.517854, "lng": -2.568888}, {"locationId": "TAC63", "locationName": "HMP YOI Castington", "postalCode": "NE65 9XG", "nhs_ha": "North East", "primary_care_trust": "Northumberland", "parliamentary_constituency": "Berwick-upon-Tweed", "lat": 55.296086, "lng": -1.6353}, {"locationId": "TACX1", "locationName": "Merley Croft", "postalCode": "NE61 2DL", "nhs_ha": "North East", "primary_care_trust": "Northumberland", "parliamentary_constituency": "Wansbeck", "lat": 55.155037, "lng": -1.68806}, {"locationId": "TAD15", "locationName": "Ward 2, Daisy Bank", "postalCode": "BD9 6RL", "nhs_ha": "Not Found", "primary_care_trust": "Not Found", "parliamentary_constituency": "Not Found", "lat": 0, "lng": 0}, {"locationId": "TAD16", "locationName": "Ward 24", "postalCode": "BD20 6TD", "nhs_ha": "Yorkshire and the Humber", "primary_care_trust": "Bradford and Airedale Teaching", "parliamentary_constituency": "Keighley", "lat": 53.898015, "lng": -1.962695}, {"locationId": "TAD17", "locationName": "Lynfield Mount Hospital", "postalCode": "BD9 6DP", "nhs_ha": "Yorkshire and the Humber", "primary_care_trust": "Bradford and Airedale Teaching", "parliamentary_constituency": "Bradford West", "lat": 53.809728, "lng": -1.805354}, {"locationId": "TAD25", "locationName": "Waddiloves Health Centre", "postalCode": "BD8 7BT", "nhs_ha": "Yorkshire and the Humber", "primary_care_trust": "Bradford and Airedale Teaching", "parliamentary_constituency": "Bradford West", "lat": 53.807431, "lng": -1.762709}, {"locationId": "TAD31", "locationName": "Copwood Respite Service", "postalCode": "BD4 0DJ", "nhs_ha": "Yorkshire and the Humber", "primary_care_trust": "Bradford and Airedale Teaching", "parliamentary_constituency": "Bradford South", "lat": 53.778449, "lng": -1.707242}, {"locationId": "TAD54", "locationName": "Airedale Centre for Mental Health", "postalCode": "BD20 6TA", "nhs_ha": "Yorkshire and the Humber", "primary_care_trust": "Bradford and Airedale Teaching", "parliamentary_constituency": "Keighley", "lat": 53.896207, "lng": -1.959516}, {"locationId": "TAD63", "locationName": "Horton Park Medical Centre", "postalCode": "BD7 3EG", "nhs_ha": "Yorkshire and the Humber", "primary_care_trust": "Bradford and Airedale Teaching", "parliamentary_constituency": "Bradford West", "lat": 53.785161, "lng": -1.772791}, {"locationId": "TAD65", "locationName": "Bradford District Care Trust - Domiciliary Care Agency", "postalCode": "BD4 6DN", "nhs_ha": "Yorkshire and the Humber", "primary_care_trust": "Bradford and Airedale Teaching", "parliamentary_constituency": "Bradford South", "lat": 53.760226, "lng": -1.732427}, {"locationId": "TAD94", "locationName": "Reevy Road Care Home", "postalCode": "BD6 3LH", "nhs_ha": "Yorkshire and the Humber", "primary_care_trust": "Bradford and Airedale Teaching", "parliamentary_constituency": "Bradford South", "lat": 53.763899, "lng": -1.80053}, {"locationId": "TAD95", "locationName": "Rix House Care Home", "postalCode": "BD22 6AR", "nhs_ha": "Yorkshire and the Humber", "primary_care_trust": "Bradford and Airedale Teaching", "parliamentary_constituency": "Keighley", "lat": 53.860616, "lng": -1.923561}, {"locationId": "TAD96", "locationName": "Weaver Court Care Home", "postalCode": "BD10 9TL", "nhs_ha": "Yorkshire and the Humber", "primary_care_trust": "Bradford and Airedale Teaching", "parliamentary_constituency": "Bradford East", "lat": 53.833898, "lng": -1.731639}, {"locationId": "TAD97", "locationName": "Old Park Road Respite Service", "postalCode": "BD10 9BG", "nhs_ha": "Yorkshire and the Humber", "primary_care_trust": "Bradford and Airedale Teaching", "parliamentary_constituency": "Bradford East", "lat": 53.831242, "lng": -1.717814}, {"locationId": "TADC1", "locationName": "Keighley Health Centre", "postalCode": "BD21 1SA", "nhs_ha": "Yorkshire and the Humber", "primary_care_trust": "Bradford and Airedale Teaching", "parliamentary_constituency": "Keighley", "lat": 53.863828, "lng": -1.914477}, {"locationId": "TADC2", "locationName": "Holmewood Health Centre", "postalCode": "BD4 9EJ", "nhs_ha": "Yorkshire and the Humber", "primary_care_trust": "Bradford and Airedale Teaching", "parliamentary_constituency": "Bradford South", "lat": 53.777787, "lng": -1.712269}, {"locationId": "TADHQ", "locationName": "BDCT Headquarters, New Mill", "postalCode": "BD18 3LD", "nhs_ha": "Yorkshire and the Humber", "primary_care_trust": "Bradford and Airedale Teaching", "parliamentary_constituency": "Shipley", "lat": 53.839675, "lng": -1.788605}, {"locationId": "TADX2", "locationName": "Whiteoak Respite Service", "postalCode": "BD2 3QD", "nhs_ha": "Yorkshire and the Humber", "primary_care_trust": "Bradford and Airedale Teaching", "parliamentary_constituency": "Bradford East", "lat": 53.809118, "lng": -1.711873}, {"locationId": "TADX4", "locationName": "Shipley Health Centre", "postalCode": "BD18 3EG", "nhs_ha": "Yorkshire and the Humber", "primary_care_trust": "Bradford and Airedale Teaching", "parliamentary_constituency": "Shipley", "lat": 53.832615, "lng": -1.781408}, {"locationId": "TADX6", "locationName": "Westbourne Green Community Health Care Centre", "postalCode": "BD8 8RA", "nhs_ha": "Yorkshire and the Humber", "primary_care_trust": "Bradford and Airedale Teaching", "parliamentary_constituency": "Bradford West", "lat": 53.807296, "lng": -1.77624}, {"locationId": "TADX7", "locationName": "Barkerend Health Centre", "postalCode": "BD3 8QH", "nhs_ha": "Yorkshire and the Humber", "primary_care_trust": "Bradford and Airedale Teaching", "parliamentary_constituency": "Bradford East", "lat": 53.797834, "lng": -1.721849}, {"locationId": "TADX8", "locationName": "Kensington Street Health Centre", "postalCode": "BD8 9LB", "nhs_ha": "Yorkshire and the Humber", "primary_care_trust": "Bradford and Airedale Teaching", "parliamentary_constituency": "Bradford West", "lat": 53.801111, "lng": -1.785535}, {"locationId": "TADX9", "locationName": "Wrose Health Centre", "postalCode": "BD2 1QG", "nhs_ha": "Yorkshire and the Humber", "primary_care_trust": "Bradford and Airedale Teaching", "parliamentary_constituency": "Shipley", "lat": 53.822997, "lng": -1.744408}, {"locationId": "TADY3", "locationName": "Bradford Royal Infirmary", "postalCode": "BD9 6RJ", "nhs_ha": "Yorkshire and the Humber", "primary_care_trust": "Bradford and Airedale Teaching", "parliamentary_constituency": "Bradford West", "lat": 53.80598, "lng": -1.794697}, {"locationId": "TADY5", "locationName": "Royds Healthy Living Centre", "postalCode": "BD6 3UD", "nhs_ha": "Yorkshire and the Humber", "primary_care_trust": "Bradford and Airedale Teaching", "parliamentary_constituency": "Bradford South", "lat": 53.766061, "lng": -1.798001}, {"locationId": "TADY6", "locationName": "Airedale General Hospital", "postalCode": "BD20 6TD", "nhs_ha": "Yorkshire and the Humber", "primary_care_trust": "Bradford and Airedale Teaching", "parliamentary_constituency": "Keighley", "lat": 53.898015, "lng": -1.962695}, {"locationId": "TAE01", "locationName": "Edale House", "postalCode": "M13 9WL", "nhs_ha": "North West", "primary_care_trust": "Manchester Teaching", "parliamentary_constituency": "Manchester Central", "lat": 53.462436, "lng": -2.227711}, {"locationId": "TAE02", "locationName": "Laureate House", "postalCode": "M23 9LT", "nhs_ha": "North West", "primary_care_trust": "Manchester Teaching", "parliamentary_constituency": "Wythenshawe and Sale East", "lat": 53.387922, "lng": -2.293183}, {"locationId": "TAE03", "locationName": "Park House", "postalCode": "M8 5RB", "nhs_ha": "North West", "primary_care_trust": "Manchester Teaching", "parliamentary_constituency": "Blackley and Broughton", "lat": 53.517882, "lng": -2.229502}, {"locationId": "TAE04", "locationName": "Trust Headquarters", "postalCode": "M21 9UN", "nhs_ha": "North West", "primary_care_trust": "Manchester Teaching", "parliamentary_constituency": "Manchester, Withington", "lat": 53.445089, "lng": -2.278115}, {"locationId": "TAE17", "locationName": "Anson Road", "postalCode": "M14 5BY", "nhs_ha": "North West", "primary_care_trust": "Manchester Teaching", "parliamentary_constituency": "Manchester Central", "lat": 53.458264, "lng": -2.218728}, {"locationId": "TAEX1", "locationName": "HMP Manchester", "postalCode": "M60 9AH", "nhs_ha": "North West", "primary_care_trust": "Manchester Teaching", "parliamentary_constituency": "Blackley and Broughton", "lat": 53.492188, "lng": -2.245686}, {"locationId": "TAEX2", "locationName": "HMP Buckley Hall", "postalCode": "OL12 9DP", "nhs_ha": "North West", "primary_care_trust": "Heywood, Middleton and Rochdale", "parliamentary_constituency": "Rochdale", "lat": 53.634962, "lng": -2.145054}, {"locationId": "TAF01", "locationName": "St Pancras Hospital", "postalCode": "NW1 0PE", "nhs_ha": "London", "primary_care_trust": "Camden", "parliamentary_constituency": "Holborn and St Pancras", "lat": 51.53665, "lng": -0.131658}, {"locationId": "TAF02", "locationName": "St Luke'sHospital", "postalCode": "N10 3HU", "nhs_ha": "London", "primary_care_trust": "Haringey Teaching", "parliamentary_constituency": "Hornsey and Wood Green", "lat": 51.587257, "lng": -0.148478}, {"locationId": "TAF25", "locationName": "Clerkenwell Project", "postalCode": "WC1X 9AG", "nhs_ha": "London", "primary_care_trust": "Islington", "parliamentary_constituency": "Islington South and Finsbury", "lat": 51.528976, "lng": -0.112884}, {"locationId": "TAF59", "locationName": "Queen Mary'sHouse", "postalCode": "NW3 1DU", "nhs_ha": "London", "primary_care_trust": "Camden", "parliamentary_constituency": "Hampstead and Kilburn", "lat": 51.56076, "lng": -0.178639}, {"locationId": "TAF65", "locationName": "Stacey Street Nursing Home", "postalCode": "N7 7JQ", "nhs_ha": "London", "primary_care_trust": "Islington", "parliamentary_constituency": "Islington North", "lat": 51.558877, "lng": -0.110131}, {"locationId": "TAF72", "locationName": "Highgate Mental Health Centre", "postalCode": "N19 5JG", "nhs_ha": "London", "primary_care_trust": "Camden", "parliamentary_constituency": "Holborn and St Pancras", "lat": 51.566621, "lng": -0.142333}, {"locationId": "TAF77", "locationName": "The Grove Centre", "postalCode": "NW3 2AQ", "nhs_ha": "London", "primary_care_trust": "Camden", "parliamentary_constituency": "Hampstead and Kilburn", "lat": 51.552406, "lng": -0.16686}, {"locationId": "TAH01", "locationName": "Norbury", "postalCode": "S5 7BB", "nhs_ha": "Yorkshire and the Humber", "primary_care_trust": "Sheffield", "parliamentary_constituency": "Sheffield, Brightside and Hillsborough", "lat": 53.405205, "lng": -1.460642}, {"locationId": "TAH17", "locationName": "Bolehill View", "postalCode": "S10 1QL", "nhs_ha": "Yorkshire and the Humber", "primary_care_trust": "Sheffield", "parliamentary_constituency": "Sheffield Central", "lat": 53.39027, "lng": -1.505279}, {"locationId": "TAH23", "locationName": "Central Health Clinic", "postalCode": "S1 2PJ", "nhs_ha": "Yorkshire and the Humber", "primary_care_trust": "Sheffield", "parliamentary_constituency": "Sheffield Central", "lat": 53.38187, "lng": -1.46659}, {"locationId": "TAH42", "locationName": "Foxwood", "postalCode": "S12 2TW", "nhs_ha": "Yorkshire and the Humber", "primary_care_trust": "Sheffield", "parliamentary_constituency": "Sheffield, Heeley", "lat": 53.357271, "lng": -1.42666}, {"locationId": "TAH52", "locationName": "Hurlfield View", "postalCode": "S12 2UU", "nhs_ha": "Yorkshire and the Humber", "primary_care_trust": "Sheffield", "parliamentary_constituency": "Sheffield, Heeley", "lat": 53.355284, "lng": -1.43208}, {"locationId": "TAH54", "locationName": "Jordanthorpe Health Centre", "postalCode": "S8 8DJ", "nhs_ha": "Yorkshire and the Humber", "primary_care_trust": "Sheffield", "parliamentary_constituency": "Sheffield, Heeley", "lat": 53.323261, "lng": -1.464033}, {"locationId": "TAH56", "locationName": "Kirkhill", "postalCode": "S8 7LE", "nhs_ha": "Yorkshire and the Humber", "primary_care_trust": "Sheffield", "parliamentary_constituency": "Sheffield, Heeley", "lat": 53.321788, "lng": -1.478448}, {"locationId": "TAH61", "locationName": "Supported Living Service", "postalCode": "S12 2AW", "nhs_ha": "Yorkshire and the Humber", "primary_care_trust": "Sheffield", "parliamentary_constituency": "Sheffield, Heeley", "lat": 53.358452, "lng": -1.421626}, {"locationId": "TAH67", "locationName": "Longley Meadows", "postalCode": "S5 7AU", "nhs_ha": "Yorkshire and the Humber", "primary_care_trust": "Sheffield", "parliamentary_constituency": "Sheffield, Brightside and Hillsborough", "lat": 53.409821, "lng": -1.455965}, {"locationId": "TAH81", "locationName": "Supported Living Service - Steven Close", "postalCode": "S35 1XW", "nhs_ha": "Yorkshire and the Humber", "primary_care_trust": "Sheffield", "parliamentary_constituency": "Penistone and Stocksbridge", "lat": 53.459055, "lng": -1.474615}, {"locationId": "TAH84", "locationName": "Highgate Surgery", "postalCode": "S9 1WN", "nhs_ha": "Yorkshire and the Humber", "primary_care_trust": "Sheffield", "parliamentary_constituency": "Sheffield South East", "lat": 53.411489, "lng": -1.395227}, {"locationId": "TAH95", "locationName": "Woodland View", "postalCode": "S8 8BG", "nhs_ha": "East Midlands", "primary_care_trust": "Derbyshire County", "parliamentary_constituency": "North East Derbyshire", "lat": 53.333016, "lng": -1.435213}, {"locationId": "TAHCC", "locationName": "The Longley Centre", "postalCode": "S5 7JT", "nhs_ha": "Yorkshire and the Humber", "primary_care_trust": "Sheffield", "parliamentary_constituency": "Sheffield, Brightside and Hillsborough", "lat": 53.410227, "lng": -1.460158}, {"locationId": "TAHEC", "locationName": "Assessment and Treatment Service (ATS)", "postalCode": "S4 7BW", "nhs_ha": "Yorkshire and the Humber", "primary_care_trust": "Sheffield", "parliamentary_constituency": "Sheffield, Brightside and Hillsborough", "lat": 53.40339, "lng": -1.466982}, {"locationId": "TAHET", "locationName": "Darnall Community Health", "postalCode": "S9 5AN", "nhs_ha": "Yorkshire and the Humber", "primary_care_trust": "Sheffield", "parliamentary_constituency": "Sheffield South East", "lat": 53.389212, "lng": -1.416202}, {"locationId": "TAHFC", "locationName": "Michael Carlisle Centre", "postalCode": "S11 9BF", "nhs_ha": "Yorkshire and the Humber", "primary_care_trust": "Sheffield", "parliamentary_constituency": "Sheffield Central", "lat": 53.361411, "lng": -1.497604}, {"locationId": "TAHX1", "locationName": "136 Warminster Road - SHSC Respite Service", "postalCode": "S8 8PQ", "nhs_ha": "Yorkshire and the Humber", "primary_care_trust": "Sheffield", "parliamentary_constituency": "Sheffield, Heeley", "lat": 53.345971, "lng": -1.469111}, {"locationId": "TAHX2", "locationName": "Brierley Medical Centre", "postalCode": "S72 9HZ", "nhs_ha": "Yorkshire and the Humber", "primary_care_trust": "Barnsley", "parliamentary_constituency": "Barnsley East", "lat": 53.594188, "lng": -1.382484}, {"locationId": "TAHX3", "locationName": "Darnall Primary Care Centre", "postalCode": "S9 4QH", "nhs_ha": "Yorkshire and the Humber", "primary_care_trust": "Sheffield", "parliamentary_constituency": "Sheffield South East", "lat": 53.384843, "lng": -1.40885}, {"locationId": "TAHX4", "locationName": "Clover City Practice", "postalCode": "S1 2PJ", "nhs_ha": "Yorkshire and the Humber", "primary_care_trust": "Sheffield", "parliamentary_constituency": "Sheffield Central", "lat": 53.38187, "lng": -1.46659}, {"locationId": "TAHXD", "locationName": "Rutland Road", "postalCode": "S3 9PZ", "nhs_ha": "Yorkshire and the Humber", "primary_care_trust": "Sheffield", "parliamentary_constituency": "Sheffield, Brightside and Hillsborough", "lat": 53.398802, "lng": -1.468153}, {"locationId": "TAHXF", "locationName": "Warminster Road", "postalCode": "S8 8PQ", "nhs_ha": "Yorkshire and the Humber", "primary_care_trust": "Sheffield", "parliamentary_constituency": "Sheffield, Heeley", "lat": 53.345971, "lng": -1.469111}, {"locationId": "TAHXK", "locationName": "Fulwood House", "postalCode": "S10 3TH", "nhs_ha": "Yorkshire and the Humber", "primary_care_trust": "Sheffield", "parliamentary_constituency": "Sheffield, Hallam", "lat": 53.364484, "lng": -1.537421}, {"locationId": "TAHXL", "locationName": "Supported Living Service - Burngreave Development", "postalCode": "S6 1LX", "nhs_ha": "Yorkshire and the Humber", "primary_care_trust": "Sheffield", "parliamentary_constituency": "Sheffield, Brightside and Hillsborough", "lat": 53.416619, "lng": -1.497647}, {"locationId": "TAHXM", "locationName": "Forest Close", "postalCode": "S35 0JW", "nhs_ha": "Yorkshire and the Humber", "primary_care_trust": "Sheffield", "parliamentary_constituency": "Sheffield, Hallam", "lat": 53.421117, "lng": -1.52033}, {"locationId": "TAHXN", "locationName": "Forest Lodge", "postalCode": "S35 0JW", "nhs_ha": "Yorkshire and the Humber", "primary_care_trust": "Sheffield", "parliamentary_constituency": "Sheffield, Hallam", "lat": 53.421117, "lng": -1.52033}, {"locationId": "TAHXP", "locationName": "Grenoside Grange", "postalCode": "S35 8QS", "nhs_ha": "Yorkshire and the Humber", "primary_care_trust": "Sheffield", "parliamentary_constituency": "Penistone and Stocksbridge", "lat": 53.436368, "lng": -1.495517}, {"locationId": "TAHYR", "locationName": "Wainwright Crescent", "postalCode": "S13 8EN", "nhs_ha": "Yorkshire and the Humber", "primary_care_trust": "Sheffield", "parliamentary_constituency": "Sheffield, Heeley", "lat": 53.367575, "lng": -1.406865}, {"locationId": "TAHYV", "locationName": "Assessment and Treatment Unit", "postalCode": "S5 7AU", "nhs_ha": "Yorkshire and the Humber", "primary_care_trust": "Sheffield", "parliamentary_constituency": "Sheffield, Brightside and Hillsborough", "lat": 53.409821, "lng": -1.455965}, {"locationId": "TAJ07", "locationName": "Edward Street Hospital", "postalCode": "B70 8NL", "nhs_ha": "West Midlands", "primary_care_trust": "Sandwell", "parliamentary_constituency": "West Bromwich East", "lat": 52.519221, "lng": -1.998748}, {"locationId": "TAJ11", "locationName": "Heath Lane Hospital", "postalCode": "B71 2BG", "nhs_ha": "West Midlands", "primary_care_trust": "Sandwell", "parliamentary_constituency": "West Bromwich East", "lat": 52.537974, "lng": -1.991995}, {"locationId": "TAJ20", "locationName": "Hallam Street Hospital", "postalCode": "B71 4NH", "nhs_ha": "West Midlands", "primary_care_trust": "Sandwell", "parliamentary_constituency": "West Bromwich East", "lat": 52.527815, "lng": -1.98644}, {"locationId": "TAJ30", "locationName": "Churchvale Rehabilitation and Recovery Centre", "postalCode": "B67 7QT", "nhs_ha": "West Midlands", "primary_care_trust": "Sandwell", "parliamentary_constituency": "Warley", "lat": 52.495027, "lng": -1.974224}, {"locationId": "TAJ52", "locationName": "Penn Hospital", "postalCode": "WV4 5HN", "nhs_ha": "West Midlands", "primary_care_trust": "Wolverhampton City", "parliamentary_constituency": "Wolverhampton South West", "lat": 52.558669, "lng": -2.159187}, {"locationId": "TAJ53", "locationName": "Pond Lane", "postalCode": "WV2 1HG", "nhs_ha": "West Midlands", "primary_care_trust": "Wolverhampton City", "parliamentary_constituency": "Wolverhampton South East", "lat": 52.573864, "lng": -2.119904}, {"locationId": "TAJ54", "locationName": "Ridge Hill LD", "postalCode": "DY8 5ST", "nhs_ha": "West Midlands", "primary_care_trust": "Dudley", "parliamentary_constituency": "Dudley South", "lat": 52.483502, "lng": -2.158203}, {"locationId": "TAJ55", "locationName": "Orchard Hills", "postalCode": "WS5 3DY", "nhs_ha": "West Midlands", "primary_care_trust": "Walsall Teaching", "parliamentary_constituency": "Walsall South", "lat": 52.576561, "lng": -1.939632}, {"locationId": "TAJ56", "locationName": "Suttons Drive", "postalCode": "B43 7BB", "nhs_ha": "West Midlands", "primary_care_trust": "Walsall Teaching", "parliamentary_constituency": "Walsall South", "lat": 52.559877, "lng": -1.929752}, {"locationId": "TAJAA", "locationName": "Newton House LD", "postalCode": "B71 4NH", "nhs_ha": "West Midlands", "primary_care_trust": "Sandwell", "parliamentary_constituency": "West Bromwich East", "lat": 52.527815, "lng": -1.98644}, {"locationId": "TAJHQ", "locationName": "Trust Headquarters", "postalCode": "B70 9PL", "nhs_ha": "West Midlands", "primary_care_trust": "Sandwell", "parliamentary_constituency": "West Bromwich East", "lat": 52.519166, "lng": -2.017332}, {"locationId": "TAJLA", "locationName": "Macarthur Centre MH", "postalCode": "B71 2BG", "nhs_ha": "West Midlands", "primary_care_trust": "Sandwell", "parliamentary_constituency": "West Bromwich East", "lat": 52.537974, "lng": -1.991995}, {"locationId": "TAJX1", "locationName": "Bloxwich Hospital", "postalCode": "WS3 2JJ", "nhs_ha": "West Midlands", "primary_care_trust": "Walsall Teaching", "parliamentary_constituency": "Walsall North", "lat": 52.613749, "lng": -2.004845}, {"locationId": "TAJX2", "locationName": "Bushey Fields Hospital", "postalCode": "DY1 2LZ", "nhs_ha": "West Midlands", "primary_care_trust": "Dudley", "parliamentary_constituency": "Dudley North", "lat": 52.502901, "lng": -2.116853}, {"locationId": "TAJX3", "locationName": "Dorothy Pattison Hospital", "postalCode": "WS2 9XH", "nhs_ha": "West Midlands", "primary_care_trust": "Walsall Teaching", "parliamentary_constituency": "Walsall South", "lat": 52.583281, "lng": -2.0019}, {"locationId": "TAK11", "locationName": "Erith Health Centre", "postalCode": "DA8 1RQ", "nhs_ha": "London", "primary_care_trust": "Bexley", "parliamentary_constituency": "Erith and Thamesmead", "lat": 51.479567, "lng": 0.180773}, {"locationId": "TAK19", "locationName": "The Oval Clinic", "postalCode": "DA15 9HW", "nhs_ha": "London", "primary_care_trust": "Bexley", "parliamentary_constituency": "Old Bexley and Sidcup", "lat": 51.445827, "lng": 0.106961}, {"locationId": "TAK21", "locationName": "Urgent Care Centre", "postalCode": "DA14 6LT", "nhs_ha": "London", "primary_care_trust": "Bexley", "parliamentary_constituency": "Old Bexley and Sidcup", "lat": 51.419041, "lng": 0.101687}, {"locationId": "TAK36", "locationName": "Bexley Community Services Headquarters", "postalCode": "DA7 6HZ", "nhs_ha": "London", "primary_care_trust": "Bexley", "parliamentary_constituency": "Bexleyheath and Crayford", "lat": 51.465721, "lng": 0.15234}, {"locationId": "TAKX1", "locationName": "Bexley Youth Advice", "postalCode": "DA6 7EJ", "nhs_ha": "London", "primary_care_trust": "Bexley", "parliamentary_constituency": "Bexleyheath and Crayford", "lat": 51.45719, "lng": 0.1394}, {"locationId": "TAKX2", "locationName": "Step Up Step Down Unit", "postalCode": "DA14 6LT", "nhs_ha": "London", "primary_care_trust": "Bexley", "parliamentary_constituency": "Old Bexley and Sidcup", "lat": 51.419041, "lng": 0.101687}, {"locationId": "TAL01", "locationName": "Paignton Community Hospital", "postalCode": "TQ3 3AG", "nhs_ha": "South West", "primary_care_trust": "Torbay", "parliamentary_constituency": "Torbay", "lat": 50.437137, "lng": -3.5688}, {"locationId": "TAL02", "locationName": "Brixham Hospital", "postalCode": "TQ5 9HN", "nhs_ha": "South West", "primary_care_trust": "Torbay", "parliamentary_constituency": "Totnes", "lat": 50.389431, "lng": -3.515497}, {"locationId": "TAL03", "locationName": "Castle Circus Health Centre", "postalCode": "TQ2 5YH", "nhs_ha": "South West", "primary_care_trust": "Torbay", "parliamentary_constituency": "Torbay", "lat": 50.467618, "lng": -3.533623}, {"locationId": "TAL04", "locationName": "Midvale Clinic", "postalCode": "TQ4 5BD", "nhs_ha": "South West", "primary_care_trust": "Torbay", "parliamentary_constituency": "Torbay", "lat": 50.433829, "lng": -3.568057}, {"locationId": "TAL05", "locationName": "Walnut Lodge", "postalCode": "TQ2 6HP", "nhs_ha": "South West", "primary_care_trust": "Torbay", "parliamentary_constituency": "Torbay", "lat": 50.462843, "lng": -3.546543}, {"locationId": "TAL08", "locationName": "St Edmunds", "postalCode": "TQ1 3QH", "nhs_ha": "South West", "primary_care_trust": "Torbay", "parliamentary_constituency": "Torbay", "lat": 50.476186, "lng": -3.528432}, {"locationId": "TAL09", "locationName": "Ashburton and Buckfastleigh Hospital", "postalCode": "TQ13 7AP", "nhs_ha": "South West", "primary_care_trust": "Devon", "parliamentary_constituency": "Central Devon", "lat": 50.519053, "lng": -3.748595}, {"locationId": "TAL10", "locationName": "Dartmouth Hospital", "postalCode": "TQ6 9BD", "nhs_ha": "Not Found", "primary_care_trust": "Not Found", "parliamentary_constituency": "Not Found", "lat": 0, "lng": 0}, {"locationId": "TAL11", "locationName": "Dawlish Hospital", "postalCode": "EX7 9DH", "nhs_ha": "South West", "primary_care_trust": "Devon", "parliamentary_constituency": "Newton Abbot", "lat": 50.580583, "lng": -3.474788}, {"locationId": "TAL12", "locationName": "Newton Abbot Hospital", "postalCode": "TQ12 2TS", "nhs_ha": "South West", "primary_care_trust": "Devon", "parliamentary_constituency": "Newton Abbot", "lat": 50.539359, "lng": -3.612255}, {"locationId": "TAL13", "locationName": "Teignmouth Hospital", "postalCode": "TQ14 9BQ", "nhs_ha": "South West", "primary_care_trust": "Devon", "parliamentary_constituency": "Newton Abbot", "lat": 50.548369, "lng": -3.511159}, {"locationId": "TAL14", "locationName": "Totnes Hospital", "postalCode": "TQ9 5GH", "nhs_ha": "South West", "primary_care_trust": "Devon", "parliamentary_constituency": "Totnes", "lat": 50.432772, "lng": -3.684189}, {"locationId": "TAL54", "locationName": "Bovey Tracey Hospital", "postalCode": "TQ13 9HJ", "nhs_ha": "South West", "primary_care_trust": "Devon", "parliamentary_constituency": "Central Devon", "lat": 50.597992, "lng": -3.676332}, {"locationId": "TAL55", "locationName": "Kingsbridge Hospital", "postalCode": "TQ7 1AT", "nhs_ha": "South West", "primary_care_trust": "Devon", "parliamentary_constituency": "Totnes", "lat": 50.288709, "lng": -3.778826}, {"locationId": "TAL56", "locationName": "Tavistock Hospital", "postalCode": "PL19 8LD", "nhs_ha": "South West", "primary_care_trust": "Devon", "parliamentary_constituency": "Torridge and West Devon", "lat": 50.547178, "lng": -4.153576}, {"locationId": "TALX1", "locationName": "Baytree House", "postalCode": "TQ2 5UD", "nhs_ha": "South West", "primary_care_trust": "Torbay", "parliamentary_constituency": "Torbay", "lat": 50.465896, "lng": -3.53468}, {"locationId": "TALX2", "locationName": "Belmont Court", "postalCode": "TQ2 7AD", "nhs_ha": "South West", "primary_care_trust": "Torbay", "parliamentary_constituency": "Torbay", "lat": 50.484499, "lng": -3.554651}, {"locationId": "TALX3", "locationName": "Occombe House", "postalCode": "TQ3 1RN", "nhs_ha": "South West", "primary_care_trust": "Torbay", "parliamentary_constituency": "Torbay", "lat": 50.456577, "lng": -3.586689}, {"locationId": "TALX7", "locationName": "Bay House Headquarters", "postalCode": "TQ2 7TD", "nhs_ha": "South West", "primary_care_trust": "Torbay", "parliamentary_constituency": "Torbay", "lat": 50.48778, "lng": -3.552785}, {"locationId": "TAM01", "locationName": "Lyndon House", "postalCode": "B92 7QW", "nhs_ha": "West Midlands", "primary_care_trust": "Solihull", "parliamentary_constituency": "Solihull", "lat": 52.448633, "lng": -1.794186}, {"locationId": "TAM02", "locationName": "Gilliver Road", "postalCode": "B90 2DS", "nhs_ha": "West Midlands", "primary_care_trust": "Solihull", "parliamentary_constituency": "Solihull", "lat": 52.406797, "lng": -1.830586}, {"locationId": "TAM03", "locationName": "Ivy Lodge", "postalCode": "B37 7HJ", "nhs_ha": "West Midlands", "primary_care_trust": "Solihull", "parliamentary_constituency": "Meriden", "lat": 52.466897, "lng": -1.745923}, {"locationId": "TAM04", "locationName": "Chelmsley Wood Primary Care Centre", "postalCode": "B37 5BU", "nhs_ha": "West Midlands", "primary_care_trust": "Solihull", "parliamentary_constituency": "Meriden", "lat": 52.480569, "lng": -1.753633}, {"locationId": "TAM15", "locationName": "Stapleton Drive", "postalCode": "B37 5LQ", "nhs_ha": "West Midlands", "primary_care_trust": "Solihull", "parliamentary_constituency": "Meriden", "lat": 52.485456, "lng": -1.74321}, {"locationId": "TAM31", "locationName": "Brookvale Domicillary Care Service", "postalCode": "B92 7HP", "nhs_ha": "West Midlands", "primary_care_trust": "Solihull", "parliamentary_constituency": "Solihull", "lat": 52.441144, "lng": -1.809859}, {"locationId": "TAM32", "locationName": "Coombes House", "postalCode": "B90 1JT", "nhs_ha": "West Midlands", "primary_care_trust": "Solihull", "parliamentary_constituency": "Solihull", "lat": 52.406319, "lng": -1.859245}, {"locationId": "TAM39", "locationName": "Sunhaven", "postalCode": "B90 1JP", "nhs_ha": "West Midlands", "primary_care_trust": "Solihull", "parliamentary_constituency": "Solihull", "lat": 52.405118, "lng": -1.867266}, {"locationId": "TAMHQ", "locationName": "Trust Headquarters (Friars Gate)", "postalCode": "B90 4BN", "nhs_ha": "West Midlands", "primary_care_trust": "Solihull", "parliamentary_constituency": "Solihull", "lat": 52.391696, "lng": -1.808175}, {"locationId": "TAMX2", "locationName": "222 Bills Lane", "postalCode": "B90 2PP", "nhs_ha": "West Midlands", "primary_care_trust": "Solihull", "parliamentary_constituency": "Solihull", "lat": 52.399089, "lng": -1.840594}, {"locationId": "TAMX3", "locationName": "Downing Close", "postalCode": "B93 0QA", "nhs_ha": "West Midlands", "primary_care_trust": "Solihull", "parliamentary_constituency": "Meriden", "lat": 52.379799, "lng": -1.744762}, {"locationId": "TAMX4", "locationName": "Hurst Green Road", "postalCode": "B93 8AE", "nhs_ha": "West Midlands", "primary_care_trust": "Solihull", "parliamentary_constituency": "Meriden", "lat": 52.38175, "lng": -1.757474}, {"locationId": "TAMX5", "locationName": "137 Bills Lane", "postalCode": "B90 2PQ", "nhs_ha": "West Midlands", "primary_care_trust": "Solihull", "parliamentary_constituency": "Solihull", "lat": 52.402417, "lng": -1.835423}, {"locationId": "TAMX6", "locationName": "Three Gates", "postalCode": "B93 0PJ", "nhs_ha": "West Midlands", "primary_care_trust": "Solihull", "parliamentary_constituency": "Meriden", "lat": 52.375629, "lng": -1.741099}, {"locationId": "TAMX8", "locationName": "Creynolds Lane", "postalCode": "B90 4ET", "nhs_ha": "West Midlands", "primary_care_trust": "Solihull", "parliamentary_constituency": "Meriden", "lat": 52.37879, "lng": -1.810581}, {"locationId": "TAMX9", "locationName": "Charlbury Avenue", "postalCode": "B37 5BG", "nhs_ha": "West Midlands", "primary_care_trust": "Solihull", "parliamentary_constituency": "Meriden", "lat": 52.47984, "lng": -1.757672}, {"locationId": "TAMY1", "locationName": "2 Kettlewell Way", "postalCode": "B37 5JG", "nhs_ha": "West Midlands", "primary_care_trust": "Solihull", "parliamentary_constituency": "Meriden", "lat": 52.476312, "lng": -1.755733}, {"locationId": "TAMY2", "locationName": "Coppice Close", "postalCode": "B90 4HX", "nhs_ha": "West Midlands", "primary_care_trust": "Solihull", "parliamentary_constituency": "Meriden", "lat": 52.378181, "lng": -1.818076}, {"locationId": "TAMY3", "locationName": "Solihull North Care Home Service", "postalCode": "B37 5BU", "nhs_ha": "West Midlands", "primary_care_trust": "Solihull", "parliamentary_constituency": "Meriden", "lat": 52.480569, "lng": -1.753633}, {"locationId": "TAMY4", "locationName": "Green Hill Way DCA", "postalCode": "B90 3PW", "nhs_ha": "West Midlands", "primary_care_trust": "Solihull", "parliamentary_constituency": "Solihull", "lat": 52.420608, "lng": -1.831974}, {"locationId": "TAMY5", "locationName": "Supported Care for Tenants", "postalCode": "B37 7HJ", "nhs_ha": "West Midlands", "primary_care_trust": "Solihull", "parliamentary_constituency": "Meriden", "lat": 52.466897, "lng": -1.745923}, {"locationId": "TANX1", "locationName": "Mental Health: Older People'sMental Health Service: The Gardens", "postalCode": "DN33 2BA", "nhs_ha": "Yorkshire and the Humber", "primary_care_trust": "North East Lincolnshire", "parliamentary_constituency": "Great Grimsby", "lat": 53.544858, "lng": -0.096229}, {"locationId": "TANX2", "locationName": "Directorate of Mental Health Harrison House", "postalCode": "DN32 9EP", "nhs_ha": "Yorkshire and the Humber", "primary_care_trust": "North East Lincolnshire", "parliamentary_constituency": "Great Grimsby", "lat": 53.565292, "lng": -0.073375}, {"locationId": "TANX3", "locationName": "Supported Living Services for People with Learning Disabilities", "postalCode": "DN32 7DJ", "nhs_ha": "Yorkshire and the Humber", "primary_care_trust": "North East Lincolnshire", "parliamentary_constituency": "Great Grimsby", "lat": 53.573616, "lng": -0.071571}, {"locationId": "TANX4", "locationName": "Community Support Team/Intermediate Care at Home", "postalCode": "DN32 0LT", "nhs_ha": "Yorkshire and the Humber", "primary_care_trust": "North East Lincolnshire", "parliamentary_constituency": "Great Grimsby", "lat": 53.562657, "lng": -0.082111}, {"locationId": "TANX5", "locationName": "The Beacon Intermediate Tier Unit", "postalCode": "DN35 9HL", "nhs_ha": "Yorkshire and the Humber", "primary_care_trust": "North East Lincolnshire", "parliamentary_constituency": "Cleethorpes", "lat": 53.552949, "lng": -0.040084}, {"locationId": "TANX6", "locationName": "The Willows - Older Peoples Mental Health Resource Centre", "postalCode": "DN37 9EJ", "nhs_ha": "Yorkshire and the Humber", "primary_care_trust": "North East Lincolnshire", "parliamentary_constituency": "Great Grimsby", "lat": 53.568664, "lng": -0.128187}, {"locationId": "TANXX", "locationName": "North East Lincolnshire Care Trust Plus Headquarters", "postalCode": "DN31 3AG", "nhs_ha": "Yorkshire and the Humber", "primary_care_trust": "North East Lincolnshire", "parliamentary_constituency": "Great Grimsby", "lat": 53.574253, "lng": -0.076095}, {"locationId": "TAP02", "locationName": "Darwen Health Centre", "postalCode": "BB3 1PY", "nhs_ha": "North West", "primary_care_trust": "Blackburn with Darwen Teaching", "parliamentary_constituency": "Rossendale and Darwen", "lat": 53.695744, "lng": -2.471427}, {"locationId": "TAP03", "locationName": "Montague Health Centre", "postalCode": "BB2 1PP", "nhs_ha": "Not Found", "primary_care_trust": "Not Found", "parliamentary_constituency": "Not Found", "lat": 0, "lng": 0}, {"locationId": "TAP04", "locationName": "Larkhill Health Centre", "postalCode": "BB1 5BJ", "nhs_ha": "Not Found", "primary_care_trust": "Not Found", "parliamentary_constituency": "Not Found", "lat": 0, "lng": 0}, {"locationId": "TAP14", "locationName": "Guide Business Centre", "postalCode": "BB1 2QH", "nhs_ha": "North West", "primary_care_trust": "Blackburn with Darwen Teaching", "parliamentary_constituency": "Blackburn", "lat": 53.73009, "lng": -2.444405}]